{"type":"FeatureCollection","features":[{"geometry":{"type":"LineString","coordinates":[[120.695801,24.127243],[120.694900,24.127285],[120.694470,24.127801]]},"type":"Feature","properties":{"kind":"minor_road","name:en":"Dongmen Road","name":"\u6771\u9580\u8def","sort_key":17,"is_bridge":"no","source":"openstreetmap","is_link":"no","oneway":"no","is_tunnel":"no","id":211833353,"highway":"residential"}},{"geometry":{"type":"LineString","coordinates":[[120.676899,24.142044],[120.676725,24.142191]]},"type":"Feature","properties":{"kind":"minor_road","is_bridge":"yes","name":"\u6c11\u65cf\u67f3\u6a4b","sort_key":17,"source":"openstreetmap","is_link":"no","oneway":"yes","is_tunnel":"no","id":292836027,"highway":"residential"}},{"geometry":{"type":"LineString","coordinates":[[120.680450,24.146754],[120.677739,24.144119]]},"type":"Feature","properties":{"kind":"major_road","name:en":"Dacheng Street","name":"\u5927\u8aa0\u8857","sort_key":19,"is_bridge":"no","source":"openstreetmap","is_link":"no","oneway":"no","is_tunnel":"no","id":271452253,"highway":"tertiary"}},{"geometry":{"type":"LineString","coordinates":[[120.677626,24.132264],[120.678946,24.129716]]},"type":"Feature","properties":{"kind":"minor_road","name:en":"Jishi Street","name":"\u6fdf\u4e16\u8857","sort_key":17,"is_bridge":"no","source":"openstreetmap","is_link":"no","oneway":"no","is_tunnel":"no","id":119289461,"highway":"residential"}},{"geometry":{"type":"LineString","coordinates":[[120.678946,24.129716],[120.679006,24.129603]]},"type":"Feature","properties":{"kind":"minor_road","is_bridge":"yes","name":"\u6fdf\u4e16\u7da0\u6a4b","sort_key":17,"source":"openstreetmap","is_link":"no","oneway":"no","is_tunnel":"no","id":141031904,"highway":"residential"}},{"geometry":{"type":"LineString","coordinates":[[120.674087,24.131744],[120.676129,24.127692]]},"type":"Feature","properties":{"kind":"minor_road","name:en":"Gongli Street","name":"\u516c\u7406\u8857","sort_key":17,"is_bridge":"no","source":"openstreetmap","is_link":"no","oneway":"no","is_tunnel":"no","id":202795178,"highway":"residential"}},{"geometry":{"type":"LineString","coordinates":[[120.695801,24.140461],[120.694677,24.140426]]},"type":"Feature","properties":{"kind":"minor_road","name":"\u65f1\u6eaa\u8857","sort_key":17,"source":"openstreetmap","is_link":"no","is_bridge":"no","is_tunnel":"no","id":211840577,"highway":"unclassified"}},{"geometry":{"type":"LineString","coordinates":[[120.688548,24.146754],[120.686214,24.146243]]},"type":"Feature","properties":{"kind":"major_road","name:en":"Jingwu Road","name":"\u7cbe\u6b66\u8def","sort_key":19,"is_bridge":"no","source":"openstreetmap","is_link":"no","oneway":"yes","is_tunnel":"no","id":220293069,"highway":"tertiary"}},{"geometry":{"type":"LineString","coordinates":[[120.685270,24.137770],[120.685647,24.137513]]},"type":"Feature","properties":{"kind":"minor_road","is_bridge":"no","sort_key":17,"source":"openstreetmap","is_link":"no","oneway":"yes","is_tunnel":"no","id":229906872,"highway":"residential"}},{"geometry":{"type":"LineString","coordinates":[[120.676199,24.127176],[120.675226,24.126764]]},"type":"Feature","properties":{"kind":"minor_road","name:en":"Zhongxiao Road","name":"\u5fe0\u5b5d\u8def","sort_key":17,"is_bridge":"no","source":"openstreetmap","is_link":"no","oneway":"no","is_tunnel":"no","id":141031895,"highway":"residential"}},{"geometry":{"type":"LineString","coordinates":[[120.676361,24.132659],[120.677304,24.133100]]},"type":"Feature","properties":{"kind":"minor_road","is_bridge":"no","sort_key":17,"source":"openstreetmap","is_link":"no","oneway":"yes","is_tunnel":"no","id":219480353,"highway":"residential"}},{"geometry":{"type":"LineString","coordinates":[[120.677304,24.133100],[120.676321,24.132732]]},"type":"Feature","properties":{"kind":"minor_road","is_bridge":"no","sort_key":17,"source":"openstreetmap","is_link":"no","oneway":"yes","is_tunnel":"no","id":219480354,"highway":"residential"}},{"geometry":{"type":"LineString","coordinates":[[120.694618,24.142393],[120.695801,24.140909]]},"type":"Feature","properties":{"sort_key":21,"name:en":"Jiancheng Road","name":"\u5efa\u6210\u8def","kind":"major_road","is_bridge":"no","source":"openstreetmap","is_link":"no","oneway":"yes","is_tunnel":"yes","ref":"3","id":359130751,"highway":"primary"}},{"geometry":{"type":"LineString","coordinates":[[120.681129,24.127478],[120.682602,24.127478],[120.683613,24.127886],[120.684647,24.127660]]},"type":"Feature","properties":{"kind":"minor_road","name:en":"Ruifeng Street","name":"\u745e\u8c50\u8857","sort_key":17,"is_bridge":"no","source":"openstreetmap","is_link":"no","oneway":"no","is_tunnel":"no","id":202795202,"highway":"residential"}},{"geometry":{"type":"LineString","coordinates":[[120.686265,24.146149],[120.686214,24.146243]]},"type":"Feature","properties":{"kind":"major_road","name:en":"Shuangshi Road Sec. 1","name":"\u96d9\u5341\u8def\u4e00\u6bb5","sort_key":19,"is_bridge":"no","source":"openstreetmap","is_link":"no","oneway":"yes","is_tunnel":"no","id":292749332,"highway":"tertiary"}},{"geometry":{"type":"LineString","coordinates":[[120.691338,24.133551],[120.689726,24.132848]]},"type":"Feature","properties":{"kind":"minor_road","name:en":"Zhongxiao Road","name":"\u5fe0\u5b5d\u8def","sort_key":17,"source":"openstreetmap","is_link":"no","is_bridge":"no","is_tunnel":"no","id":59164505,"highway":"residential"}},{"geometry":{"type":"LineString","coordinates":[[120.673828,24.143213],[120.675643,24.141704]]},"type":"Feature","properties":{"kind":"major_road","name:en":"Minquan Road","name":"\u6c11\u6b0a\u8def","sort_key":19,"is_bridge":"no","source":"openstreetmap","is_link":"no","oneway":"no","is_tunnel":"no","id":219485331,"highway":"tertiary"}},{"geometry":{"type":"LineString","coordinates":[[120.692285,24.139966],[120.687838,24.138102],[120.686104,24.138022]]},"type":"Feature","properties":{"kind":"minor_road","name:en":"Xinmin Street","name":"\u65b0\u6c11\u8857","sort_key":17,"source":"openstreetmap","is_link":"no","is_bridge":"no","is_tunnel":"no","id":361758053,"highway":"residential"}},{"geometry":{"type":"LineString","coordinates":[[120.689321,24.137135],[120.689364,24.137263]]},"type":"Feature","properties":{"kind":"minor_road","sort_key":17,"source":"openstreetmap","is_link":"no","is_bridge":"no","is_tunnel":"no","id":219488752,"highway":"unclassified"}},{"geometry":{"type":"LineString","coordinates":[[120.680861,24.133510],[120.680399,24.134506]]},"type":"Feature","properties":{"kind":"minor_road","name:en":"Minsheng Road","name":"\u6c11\u751f\u8def","sort_key":17,"source":"openstreetmap","is_link":"no","is_bridge":"no","is_tunnel":"no","id":211840580,"highway":"residential"}},{"geometry":{"type":"LineString","coordinates":[[120.676132,24.146754],[120.679054,24.144219]]},"type":"Feature","properties":{"kind":"minor_road","name:en":"Chenggong Road","name":"\u6210\u529f\u8def","sort_key":17,"is_bridge":"no","source":"openstreetmap","is_link":"no","oneway":"yes","is_tunnel":"no","id":148849082,"highway":"residential"}},{"geometry":{"type":"LineString","coordinates":[[120.682361,24.135914],[120.682264,24.135849]]},"type":"Feature","properties":{"kind":"major_road","name:en":"Jianguo Road","name":"\u5efa\u570b\u8def","sort_key":19,"is_bridge":"no","source":"openstreetmap","is_link":"no","oneway":"yes","is_tunnel":"no","id":328091230,"highway":"tertiary"}},{"geometry":{"type":"LineString","coordinates":[[120.678815,24.146131],[120.678529,24.145835]]},"type":"Feature","properties":{"kind":"minor_road","name:en":"Xingmin Street","name":"\u8208\u6c11\u8857","sort_key":17,"is_bridge":"yes","source":"openstreetmap","is_link":"no","oneway":"no","is_tunnel":"no","id":260270757,"highway":"residential"}},{"geometry":{"type":"LineString","coordinates":[[120.689287,24.141472],[120.686026,24.141551]]},"type":"Feature","properties":{"kind":"minor_road","sort_key":17,"source":"openstreetmap","is_link":"no","is_bridge":"no","is_tunnel":"no","id":57935072,"highway":"unclassified"}},{"geometry":{"type":"LineString","coordinates":[[120.682175,24.145932],[120.682325,24.146039],[120.682282,24.146254]]},"type":"Feature","properties":{"kind":"minor_road","is_bridge":"no","sort_key":17,"source":"openstreetmap","is_link":"no","oneway":"yes","is_tunnel":"no","id":219177555,"highway":"residential"}},{"geometry":{"type":"LineString","coordinates":[[120.680853,24.145404],[120.679279,24.146754]]},"type":"Feature","properties":{"kind":"major_road","name:en":"Gongyuan Road","name":"\u516c\u5712\u8def","sort_key":19,"is_bridge":"no","source":"openstreetmap","is_link":"no","oneway":"no","is_tunnel":"no","id":335537956,"highway":"tertiary"}},{"geometry":{"type":"LineString","coordinates":[[120.682953,24.134381],[120.689144,24.136973]]},"type":"Feature","properties":{"kind":"major_road","name:en":"Fuxing Road Sec. 4","name":"\u5fa9\u8208\u8def\u56db\u6bb5","sort_key":20,"is_bridge":"no","source":"openstreetmap","is_link":"no","oneway":"yes","is_tunnel":"no","ref":"136","id":219488759,"highway":"secondary"}},{"geometry":{"type":"LineString","coordinates":[[120.682386,24.135829],[120.682361,24.135914]]},"type":"Feature","properties":{"kind":"major_road","name:en":"Minquan Road","name":"\u6c11\u6b0a\u8def","sort_key":19,"is_bridge":"no","source":"openstreetmap","is_link":"no","oneway":"yes","is_tunnel":"no","id":219485653,"highway":"tertiary"}},{"geometry":{"type":"LineString","coordinates":[[120.685287,24.140128],[120.685875,24.140137]]},"type":"Feature","properties":{"kind":"minor_road","name:en":"Guangfu Road","name":"\u5149\u5fa9\u8def","sort_key":17,"source":"openstreetmap","is_link":"no","is_bridge":"no","is_tunnel":"no","id":321570654,"highway":"residential"}},{"geometry":{"type":"LineString","coordinates":[[120.690973,24.138808],[120.695801,24.138854]]},"type":"Feature","properties":{"kind":"minor_road","name:en":"Leye Road","name":"\u6a02\u696d\u8def","sort_key":17,"is_bridge":"no","source":"openstreetmap","is_link":"no","oneway":"no","is_tunnel":"no","id":59400705,"highway":"residential"}},{"geometry":{"type":"LineString","coordinates":[[120.690072,24.137950],[120.689879,24.138401],[120.689728,24.138358],[120.689900,24.137950],[120.689098,24.137049]]},"type":"Feature","properties":{"kind":"minor_road","is_bridge":"no","name":"\u5fa9\u8208\u8def\u56db\u6bb5","sort_key":17,"source":"openstreetmap","is_link":"no","oneway":"yes","is_tunnel":"no","id":219488758,"highway":"unclassified"}},{"geometry":{"type":"LineString","coordinates":[[120.681510,24.139375],[120.683142,24.137958]]},"type":"Feature","properties":{"kind":"minor_road","name:en":"Zhongshan Road","name":"\u4e2d\u5c71\u8def","sort_key":17,"is_bridge":"no","source":"openstreetmap","is_link":"no","oneway":"yes","is_tunnel":"no","id":335541103,"highway":"residential"}},{"geometry":{"type":"LineString","coordinates":[[120.687705,24.144461],[120.687886,24.146120]]},"type":"Feature","properties":{"kind":"minor_road","sort_key":17,"source":"openstreetmap","is_link":"no","is_bridge":"no","is_tunnel":"no","id":339737492,"highway":"residential"}},{"geometry":{"type":"LineString","coordinates":[[120.683907,24.146179],[120.683977,24.146754]]},"type":"Feature","properties":{"kind":"minor_road","name:en":"Yizhong Street","name":"\u4e00\u4e2d\u8857","sort_key":17,"is_bridge":"no","source":"openstreetmap","is_link":"no","oneway":"no","is_tunnel":"no","id":212313525,"highway":"residential"}},{"geometry":{"type":"LineString","coordinates":[[120.675782,24.141631],[120.675643,24.141704]]},"type":"Feature","properties":{"kind":"major_road","is_bridge":"no","sort_key":19,"source":"openstreetmap","is_link":"no","oneway":"yes","is_tunnel":"no","id":339759646,"highway":"tertiary"}},{"geometry":{"type":"LineString","coordinates":[[120.695565,24.146317],[120.695577,24.142767]]},"type":"Feature","properties":{"kind":"minor_road","sort_key":17,"source":"openstreetmap","is_link":"no","is_bridge":"no","is_tunnel":"no","id":82257490,"highway":"residential"}},{"geometry":{"type":"LineString","coordinates":[[120.678990,24.127021],[120.679140,24.126702]]},"type":"Feature","properties":{"kind":"major_road","name:en":"Guoguang Road","name":"\u570b\u5149\u8def","sort_key":21,"is_bridge":"no","source":"openstreetmap","is_link":"no","oneway":"yes","is_tunnel":"no","ref":"3","id":205735648,"highway":"primary"}},{"geometry":{"type":"LineString","coordinates":[[120.695801,24.140991],[120.694670,24.142420]]},"type":"Feature","properties":{"sort_key":21,"name:en":"Jiancheng Road","name":"\u5efa\u6210\u8def","kind":"major_road","is_bridge":"no","source":"openstreetmap","is_link":"no","oneway":"yes","is_tunnel":"yes","ref":"3","id":211840574,"highway":"primary"}},{"geometry":{"type":"LineString","coordinates":[[120.680224,24.134880],[120.678495,24.136445]]},"type":"Feature","properties":{"kind":"minor_road","name:en":"Minsheng Road","name":"\u6c11\u751f\u8def","sort_key":17,"source":"openstreetmap","is_link":"no","is_bridge":"no","is_tunnel":"no","id":119289460,"highway":"residential"}},{"geometry":{"type":"LineString","coordinates":[[120.689624,24.138530],[120.694017,24.140386],[120.695230,24.141209],[120.695801,24.141786]]},"type":"Feature","properties":{"kind":"rail","name":"\u53f0\u4e2d\u7dda(Taichung Line)","sort_key":23,"source":"openstreetmap","is_link":"no","is_bridge":"no","is_tunnel":"no","railway":"rail","id":323271547}},{"geometry":{"type":"LineString","coordinates":[[120.679104,24.127068],[120.678053,24.129207]]},"type":"Feature","properties":{"kind":"major_road","name:en":"Guoguang Road","name":"\u570b\u5149\u8def","sort_key":19,"is_bridge":"no","source":"openstreetmap","is_link":"no","oneway":"yes","is_tunnel":"no","id":219480365,"highway":"tertiary"}},{"geometry":{"type":"LineString","coordinates":[[120.675089,24.142127],[120.676624,24.143621]]},"type":"Feature","properties":{"kind":"minor_road","name:en":"Ren\u2019ai Street","name":"\u4ec1\u611b\u8857","sort_key":17,"is_bridge":"no","source":"openstreetmap","is_link":"no","oneway":"no","is_tunnel":"no","id":270387862,"highway":"residential"}},{"geometry":{"type":"LineString","coordinates":[[120.676919,24.137838],[120.673934,24.134985]]},"type":"Feature","properties":{"kind":"minor_road","name:en":"Fuhou Street","name":"\u5e9c\u5f8c\u8857","sort_key":17,"is_bridge":"no","source":"openstreetmap","is_link":"no","oneway":"no","is_tunnel":"no","id":144691377,"highway":"residential"}},{"geometry":{"type":"LineString","coordinates":[[120.683414,24.136296],[120.683365,24.136398]]},"type":"Feature","properties":{"kind":"minor_road","name:en":"Minzu Road","name":"\u6c11\u65cf\u8def","sort_key":17,"is_bridge":"no","source":"openstreetmap","is_link":"no","oneway":"yes","is_tunnel":"no","id":56027000,"highway":"residential"}},{"geometry":{"type":"LineString","coordinates":[[120.677905,24.146754],[120.678933,24.145274]]},"type":"Feature","properties":{"kind":"minor_road","name:en":"Section 3, Liuchuan West Road","name":"\u67f3\u5ddd\u897f\u8def\u4e09\u6bb5","sort_key":17,"is_bridge":"no","source":"openstreetmap","is_link":"no","oneway":"yes","is_tunnel":"no","id":260269824,"highway":"residential"}},{"geometry":{"type":"LineString","coordinates":[[120.675612,24.146754],[120.675140,24.146283]]},"type":"Feature","properties":{"kind":"minor_road","sort_key":17,"source":"openstreetmap","is_link":"no","is_bridge":"no","is_tunnel":"no","id":354073845,"highway":"residential"}},{"geometry":{"type":"LineString","coordinates":[[120.678110,24.146457],[120.677685,24.146754]]},"type":"Feature","properties":{"kind":"minor_road","name:en":"Duxing Road","name":"\u7be4\u884c\u8def","sort_key":17,"is_bridge":"no","source":"openstreetmap","is_link":"no","oneway":"yes","is_tunnel":"no","id":219414232,"highway":"residential"}},{"geometry":{"type":"LineString","coordinates":[[120.695801,24.134589],[120.694985,24.133809],[120.694106,24.133358],[120.678990,24.127021]]},"type":"Feature","properties":{"kind":"major_road","name:en":"Jiancheng Road","name":"\u5efa\u6210\u8def","sort_key":21,"is_bridge":"no","source":"openstreetmap","is_link":"no","oneway":"yes","is_tunnel":"no","ref":"3","id":211840572,"highway":"primary"}},{"geometry":{"type":"LineString","coordinates":[[120.694492,24.142756],[120.694486,24.146754]]},"type":"Feature","properties":{"kind":"major_road","name:en":"Jinhua Road","name":"\u9032\u5316\u8def","sort_key":21,"is_bridge":"no","source":"openstreetmap","is_link":"no","oneway":"yes","is_tunnel":"no","ref":"3","id":211842933,"highway":"primary"}},{"geometry":{"type":"LineString","coordinates":[[120.686214,24.146243],[120.686336,24.146754]]},"type":"Feature","properties":{"kind":"major_road","name:en":"Shuangshi Road Sec. 1","name":"\u96d9\u5341\u8def\u4e00\u6bb5","sort_key":19,"is_bridge":"no","source":"openstreetmap","is_link":"no","oneway":"yes","is_tunnel":"no","id":335529309,"highway":"tertiary"}},{"geometry":{"type":"LineString","coordinates":[[120.684163,24.131993],[120.690713,24.134751]]},"type":"Feature","properties":{"kind":"minor_road","name:en":"Xinyi Street","name":"\u4fe1\u7fa9\u8857","sort_key":17,"is_bridge":"no","source":"openstreetmap","is_link":"no","oneway":"no","is_tunnel":"no","id":282841571,"highway":"residential"}},{"geometry":{"type":"LineString","coordinates":[[120.693700,24.126702],[120.695801,24.128368]]},"type":"Feature","properties":{"kind":"minor_road","name:en":"Dongguangyuan Road","name":"\u6771\u5149\u5712\u8def","sort_key":17,"is_bridge":"no","source":"openstreetmap","is_link":"no","oneway":"yes","is_tunnel":"no","id":211834962,"highway":"residential"}},{"geometry":{"type":"LineString","coordinates":[[120.682442,24.137231],[120.682382,24.137279]]},"type":"Feature","properties":{"kind":"minor_road","name:en":"Minzu Road","name":"\u6c11\u65cf\u8def","sort_key":17,"is_bridge":"no","source":"openstreetmap","is_link":"no","oneway":"yes","is_tunnel":"no","id":271086442,"highway":"residential"}},{"geometry":{"type":"LineString","coordinates":[[120.684508,24.142288],[120.681829,24.144613]]},"type":"Feature","properties":{"kind":"major_road","name:en":"Gongyuan Road","name":"\u516c\u5712\u8def","sort_key":19,"is_bridge":"no","source":"openstreetmap","is_link":"no","oneway":"no","is_tunnel":"no","id":219177554,"highway":"tertiary"}},{"geometry":{"type":"LineString","coordinates":[[120.686229,24.146754],[120.686067,24.146340],[120.686124,24.146162]]},"type":"Feature","properties":{"kind":"major_road","name:en":"Shuangshi Road Sec. 1","name":"\u96d9\u5341\u8def\u4e00\u6bb5","sort_key":19,"is_bridge":"no","source":"openstreetmap","is_link":"no","oneway":"yes","is_tunnel":"no","id":220293071,"highway":"tertiary"}},{"geometry":{"type":"LineString","coordinates":[[120.689144,24.136973],[120.690007,24.137800],[120.690308,24.138358],[120.690973,24.138808]]},"type":"Feature","properties":{"kind":"minor_road","is_bridge":"no","name":"\u5fa9\u8208\u8def\u56db\u6bb5","sort_key":17,"source":"openstreetmap","is_link":"no","oneway":"yes","is_tunnel":"no","id":219488757,"highway":"unclassified"}},{"geometry":{"type":"LineString","coordinates":[[120.685960,24.143149],[120.692477,24.142729],[120.695801,24.142756]]},"type":"Feature","properties":{"kind":"major_road","name:en":"Ziyou Road Sec. 3","name":"\u81ea\u7531\u8def\u4e09\u6bb5","sort_key":19,"is_bridge":"no","source":"openstreetmap","is_link":"no","oneway":"no","is_tunnel":"no","id":355232302,"highway":"tertiary"}},{"geometry":{"type":"LineString","coordinates":[[120.691096,24.142800],[120.690999,24.140015]]},"type":"Feature","properties":{"kind":"minor_road","sort_key":17,"source":"openstreetmap","is_link":"no","is_bridge":"no","is_tunnel":"no","id":57935060,"highway":"unclassified"}},{"geometry":{"type":"LineString","coordinates":[[120.686917,24.143085],[120.686866,24.142325],[120.691066,24.142181]]},"type":"Feature","properties":{"kind":"minor_road","sort_key":17,"source":"openstreetmap","is_link":"no","is_bridge":"no","is_tunnel":"no","id":57935062,"highway":"unclassified"}},{"geometry":{"type":"LineString","coordinates":[[120.684399,24.126702],[120.685189,24.129620]]},"type":"Feature","properties":{"kind":"major_road","name:en":"Taichung Road","name":"\u53f0\u4e2d\u8def","sort_key":19,"is_bridge":"no","source":"openstreetmap","is_link":"no","oneway":"yes","is_tunnel":"no","id":211686543,"highway":"tertiary"}},{"geometry":{"type":"LineString","coordinates":[[120.685875,24.140137],[120.685955,24.139756]]},"type":"Feature","properties":{"kind":"major_road","name:en":"Jianguo Road","name":"\u5efa\u570b\u8def","sort_key":19,"is_bridge":"no","source":"openstreetmap","is_link":"no","oneway":"yes","is_tunnel":"no","id":212399754,"highway":"tertiary"}},{"geometry":{"type":"LineString","coordinates":[[120.690116,24.135929],[120.682539,24.132781]]},"type":"Feature","properties":{"kind":"minor_road","name:en":"Heping Street","name":"\u548c\u5e73\u8857","sort_key":17,"is_bridge":"no","source":"openstreetmap","is_link":"no","oneway":"no","is_tunnel":"no","id":56064300,"highway":"residential"}},{"geometry":{"type":"LineString","coordinates":[[120.681841,24.126702],[120.681834,24.127095]]},"type":"Feature","properties":{"kind":"minor_road","name":"\u4ec1\u548c\u8def 225\u5df7","sort_key":17,"source":"openstreetmap","is_link":"no","is_bridge":"no","is_tunnel":"no","id":354974948,"highway":"residential"}},{"geometry":{"type":"LineString","coordinates":[[120.678530,24.126702],[120.679038,24.126915]]},"type":"Feature","properties":{"kind":"major_road","name:en":"Jiancheng Road","name":"\u5efa\u6210\u8def","sort_key":19,"is_bridge":"no","source":"openstreetmap","is_link":"no","oneway":"yes","is_tunnel":"no","id":282747682,"highway":"tertiary"}},{"geometry":{"type":"LineString","coordinates":[[120.682382,24.137279],[120.683923,24.138772]]},"type":"Feature","properties":{"kind":"minor_road","is_bridge":"no","name":"\u7da0\u5ddd\u897f\u8857","sort_key":17,"source":"openstreetmap","is_link":"no","oneway":"yes","is_tunnel":"no","id":271086443,"highway":"residential"}},{"geometry":{"type":"LineString","coordinates":[[120.680076,24.130019],[120.681137,24.127792],[120.681115,24.126702]]},"type":"Feature","properties":{"kind":"minor_road","name:en":"Zhengyi Street","name":"\u6b63\u7fa9\u8857","sort_key":17,"is_bridge":"no","source":"openstreetmap","is_link":"no","oneway":"no","is_tunnel":"no","id":141031902,"highway":"residential"}},{"geometry":{"type":"LineString","coordinates":[[120.681829,24.144613],[120.681967,24.144700]]},"type":"Feature","properties":{"kind":"major_road","name:en":"Sanmin Road Sec. 3","name":"\u4e09\u6c11\u8def\u4e09\u6bb5","sort_key":19,"is_bridge":"no","source":"openstreetmap","is_link":"no","oneway":"yes","is_tunnel":"no","id":241887066,"highway":"tertiary"}},{"geometry":{"type":"LineString","coordinates":[[120.686054,24.140133],[120.686041,24.140808]]},"type":"Feature","properties":{"kind":"major_road","name:en":"Shuangshi Road Sec. 1","name":"\u96d9\u5341\u8def\u4e00\u6bb5","sort_key":19,"is_bridge":"no","source":"openstreetmap","is_link":"no","oneway":"yes","is_tunnel":"no","id":220293070,"highway":"tertiary"}},{"geometry":{"type":"LineString","coordinates":[[120.673967,24.126702],[120.674488,24.127596],[120.674887,24.129538],[120.675149,24.129669]]},"type":"Feature","properties":{"kind":"minor_road","name:en":"Yonghe Street","name":"\u6c38\u548c\u8857","sort_key":17,"is_bridge":"no","source":"openstreetmap","is_link":"no","oneway":"no","is_tunnel":"no","id":282747703,"highway":"residential"}},{"geometry":{"type":"LineString","coordinates":[[120.694693,24.139599],[120.695801,24.139601]]},"type":"Feature","properties":{"kind":"minor_road","is_bridge":"no","sort_key":17,"source":"openstreetmap","is_link":"no","oneway":"no","is_tunnel":"no","id":288595672,"highway":"residential"}},{"geometry":{"type":"LineString","coordinates":[[120.694700,24.138826],[120.694677,24.140426]]},"type":"Feature","properties":{"kind":"minor_road","sort_key":17,"source":"openstreetmap","is_link":"no","is_bridge":"no","is_tunnel":"no","id":288595675,"highway":"residential"}},{"geometry":{"type":"LineString","coordinates":[[120.694674,24.130305],[120.694752,24.128718],[120.694185,24.128271],[120.694552,24.127864]]},"type":"Feature","properties":{"kind":"minor_road","sort_key":17,"source":"openstreetmap","is_link":"no","is_bridge":"no","is_tunnel":"no","id":288628106,"highway":"residential"}},{"geometry":{"type":"LineString","coordinates":[[120.684584,24.139420],[120.685287,24.140128]]},"type":"Feature","properties":{"kind":"minor_road","is_bridge":"no","name":"\u7da0\u5ddd\u897f\u8857","sort_key":17,"source":"openstreetmap","is_link":"no","oneway":"yes","is_tunnel":"no","id":212399751,"highway":"residential"}},{"geometry":{"type":"LineString","coordinates":[[120.695403,24.142759],[120.695429,24.141816]]},"type":"Feature","properties":{"kind":"minor_road","sort_key":17,"source":"openstreetmap","is_link":"no","is_bridge":"no","is_tunnel":"no","id":288629413,"highway":"residential"}},{"geometry":{"type":"LineString","coordinates":[[120.680561,24.144287],[120.679383,24.145270],[120.679218,24.145550]]},"type":"Feature","properties":{"kind":"minor_road","name:en":"Guangfu Road","name":"\u5149\u5fa9\u8def","sort_key":17,"is_bridge":"no","source":"openstreetmap","is_link":"no","oneway":"yes","is_tunnel":"no","id":271740717,"highway":"residential"}},{"geometry":{"type":"LineString","coordinates":[[120.680400,24.134672],[120.682332,24.135482]]},"type":"Feature","properties":{"kind":"rail","name":"\u53f0\u4e2d\u7dda(Taichung Line)","sort_key":23,"source":"openstreetmap","is_link":"no","is_bridge":"no","is_tunnel":"no","railway":"rail","id":322512936}},{"geometry":{"type":"LineString","coordinates":[[120.695801,24.141371],[120.695486,24.141018]]},"type":"Feature","properties":{"kind":"major_road","name:en":"Fuxing E. Road","name":"\u5fa9\u8208\u6771\u8def","sort_key":19,"is_bridge":"no","source":"openstreetmap","is_link":"no","oneway":"yes","is_tunnel":"no","id":59164509,"highway":"tertiary"}},{"geometry":{"type":"LineString","coordinates":[[120.675976,24.133044],[120.677240,24.133594]]},"type":"Feature","properties":{"name:en":"Jianguo Road","name":"\u5efa\u570b\u8def","sort_key":19,"kind":"major_road","is_bridge":"no","source":"openstreetmap","is_link":"no","oneway":"yes","is_tunnel":"no","id":212393896,"highway":"tertiary"}},{"geometry":{"type":"LineString","coordinates":[[120.687907,24.136551],[120.690294,24.131645]]},"type":"Feature","properties":{"kind":"major_road","name:en":"Dazhi Road","name":"\u5927\u667a\u8def","sort_key":19,"is_bridge":"no","source":"openstreetmap","is_link":"no","oneway":"no","is_tunnel":"no","id":56051653,"highway":"tertiary"}},{"geometry":{"type":"LineString","coordinates":[[120.673828,24.140670],[120.675973,24.141331]]},"type":"Feature","properties":{"kind":"minor_road","name:en":"Liuchuan E. Road Sec. 2","name":"\u67f3\u5ddd\u6771\u8def\u4e8c\u6bb5","sort_key":17,"is_bridge":"no","source":"openstreetmap","is_link":"no","oneway":"no","is_tunnel":"no","id":339760465,"highway":"residential"}},{"geometry":{"type":"LineString","coordinates":[[120.684996,24.135318],[120.687374,24.130417],[120.687387,24.128944]]},"type":"Feature","properties":{"kind":"minor_road","name:en":"Dagong Street","name":"\u5927\u516c\u8857","sort_key":17,"is_bridge":"no","source":"openstreetmap","is_link":"no","oneway":"no","is_tunnel":"no","id":202795209,"highway":"residential"}},{"geometry":{"type":"LineString","coordinates":[[120.686026,24.141551],[120.685288,24.141561],[120.684508,24.142288]]},"type":"Feature","properties":{"kind":"minor_road","name:en":"Gongyuan Road","name":"\u516c\u5712\u8def","sort_key":17,"is_bridge":"no","source":"openstreetmap","is_link":"no","oneway":"no","is_tunnel":"no","id":57935061,"highway":"residential"}},{"geometry":{"type":"LineString","coordinates":[[120.681829,24.144613],[120.680853,24.145404]]},"type":"Feature","properties":{"kind":"major_road","name:en":"Gongyuan Road","name":"\u516c\u5712\u8def","sort_key":19,"is_bridge":"no","source":"openstreetmap","is_link":"no","oneway":"no","is_tunnel":"no","id":292749285,"highway":"tertiary"}},{"geometry":{"type":"LineString","coordinates":[[120.689248,24.140089],[120.689336,24.142926]]},"type":"Feature","properties":{"kind":"minor_road","name:en":"Fuxing Road Section 5","name":"\u5fa9\u8208\u8def\u4e94\u6bb5","sort_key":17,"source":"openstreetmap","is_link":"no","is_bridge":"no","is_tunnel":"no","id":60439130,"highway":"residential"}},{"geometry":{"type":"LineString","coordinates":[[120.692462,24.140035],[120.692285,24.139966]]},"type":"Feature","properties":{"kind":"major_road","name:en":"Nanjing Road","name":"\u5357\u4eac\u8def","sort_key":19,"source":"openstreetmap","is_link":"no","is_bridge":"no","is_tunnel":"no","id":219488750,"highway":"tertiary"}},{"geometry":{"type":"LineString","coordinates":[[120.690830,24.142816],[120.691130,24.145502]]},"type":"Feature","properties":{"kind":"minor_road","sort_key":17,"source":"openstreetmap","is_link":"no","is_bridge":"no","is_tunnel":"no","id":288629421,"highway":"residential"}},{"geometry":{"type":"LineString","coordinates":[[120.689364,24.137263],[120.689991,24.137981],[120.689557,24.138825],[120.689248,24.140089]]},"type":"Feature","properties":{"name":"\u5fa9\u8208\u8def\u6a4b","sort_key":17,"kind":"minor_road","source":"openstreetmap","is_link":"no","is_bridge":"no","is_tunnel":"no","id":219488763,"highway":"unclassified"}},{"geometry":{"type":"LineString","coordinates":[[120.677448,24.142887],[120.678838,24.141703]]},"type":"Feature","properties":{"kind":"minor_road","name:en":"Zhongshan Road","name":"\u4e2d\u5c71\u8def","sort_key":17,"is_bridge":"no","source":"openstreetmap","is_link":"no","oneway":"yes","is_tunnel":"no","id":271452251,"highway":"residential"}},{"geometry":{"type":"LineString","coordinates":[[120.673934,24.134985],[120.673828,24.135083]]},"type":"Feature","properties":{"kind":"major_road","name:en":"Linsen Road","name":"\u6797\u68ee\u8def","sort_key":19,"is_bridge":"no","source":"openstreetmap","is_link":"no","oneway":"yes","is_tunnel":"no","id":335529305,"highway":"tertiary"}},{"geometry":{"type":"LineString","coordinates":[[120.694379,24.142756],[120.694618,24.142393]]},"type":"Feature","properties":{"kind":"major_road","name:en":"Jiancheng Road","name":"\u5efa\u6210\u8def","sort_key":21,"is_bridge":"no","source":"openstreetmap","is_link":"no","oneway":"yes","is_tunnel":"no","ref":"3","id":211840575,"highway":"primary"}},{"geometry":{"type":"LineString","coordinates":[[120.679157,24.126964],[120.694642,24.133465],[120.695801,24.134400]]},"type":"Feature","properties":{"kind":"major_road","name:en":"Jiancheng Road","name":"\u5efa\u6210\u8def","sort_key":21,"is_bridge":"no","source":"openstreetmap","is_link":"no","oneway":"yes","is_tunnel":"no","ref":"3","id":308362349,"highway":"primary"}},{"geometry":{"type":"LineString","coordinates":[[120.684508,24.142288],[120.685412,24.143156],[120.685795,24.143169]]},"type":"Feature","properties":{"kind":"major_road","name:en":"Ziyou Road Sec. 2","name":"\u81ea\u7531\u8def\u4e8c\u6bb5","sort_key":19,"is_bridge":"no","source":"openstreetmap","is_link":"no","oneway":"no","is_tunnel":"no","id":216648143,"highway":"tertiary"}},{"geometry":{"type":"LineString","coordinates":[[120.684873,24.137688],[120.684707,24.137851]]},"type":"Feature","properties":{"kind":"major_road","name:en":"Taiwan Boulevard Sec. 1","name":"\u81fa\u7063\u5927\u9053\u4e00\u6bb5","sort_key":21,"is_bridge":"no","source":"openstreetmap","is_link":"no","oneway":"yes","is_tunnel":"no","ref":"12","id":273016358,"highway":"primary"}},{"geometry":{"type":"LineString","coordinates":[[120.678838,24.141703],[120.677347,24.140242]]},"type":"Feature","properties":{"kind":"major_road","name:en":"Sanmin Road Sec. 2","name":"\u4e09\u6c11\u8def\u4e8c\u6bb5","sort_key":19,"is_bridge":"no","source":"openstreetmap","is_link":"no","oneway":"no","is_tunnel":"no","id":335541100,"highway":"tertiary"}},{"geometry":{"type":"LineString","coordinates":[[120.675643,24.141704],[120.675669,24.141597]]},"type":"Feature","properties":{"kind":"major_road","name:en":"Minquan Road","name":"\u6c11\u6b0a\u8def","sort_key":19,"is_bridge":"no","source":"openstreetmap","is_link":"no","oneway":"no","is_tunnel":"no","id":339759628,"highway":"tertiary"}},{"geometry":{"type":"LineString","coordinates":[[120.683681,24.142974],[120.676173,24.135744]]},"type":"Feature","properties":{"kind":"minor_road","name:en":"Shifu Road","name":"\u5e02\u5e9c\u8def","sort_key":17,"is_bridge":"no","source":"openstreetmap","is_link":"no","oneway":"yes","is_tunnel":"no","id":109998110,"highway":"residential"}},{"geometry":{"type":"LineString","coordinates":[[120.676654,24.131742],[120.679232,24.132816]]},"type":"Feature","properties":{"kind":"major_road","name:en":"Fuxing Road Sec. 3","name":"\u5fa9\u8208\u8def\u4e09\u6bb5","sort_key":20,"is_bridge":"no","source":"openstreetmap","is_link":"no","oneway":"yes","is_tunnel":"no","ref":"136","id":219488754,"highway":"secondary"}},{"geometry":{"type":"LineString","coordinates":[[120.680163,24.134947],[120.680117,24.135102],[120.681557,24.136504]]},"type":"Feature","properties":{"kind":"minor_road","name:en":"Luchuan W. Street","name":"\u7da0\u5ddd\u897f\u8857","sort_key":17,"is_bridge":"no","source":"openstreetmap","is_link":"no","oneway":"yes","is_tunnel":"no","id":103532155,"highway":"residential"}},{"geometry":{"type":"LineString","coordinates":[[120.673862,24.134926],[120.673828,24.134894]]},"type":"Feature","properties":{"kind":"minor_road","name:en":"Fuhou Street","name":"\u5e9c\u5f8c\u8857","sort_key":17,"is_bridge":"no","source":"openstreetmap","is_link":"no","oneway":"no","is_tunnel":"no","id":335532645,"highway":"residential"}},{"geometry":{"type":"LineString","coordinates":[[120.673828,24.133575],[120.674665,24.132822]]},"type":"Feature","properties":{"kind":"minor_road","name:en":"Guihe Street","name":"\u8cb4\u548c\u8857","sort_key":17,"is_bridge":"no","source":"openstreetmap","is_link":"no","oneway":"no","is_tunnel":"no","id":162941194,"highway":"residential"}},{"geometry":{"type":"LineString","coordinates":[[120.684822,24.139206],[120.684441,24.138847]]},"type":"Feature","properties":{"kind":"minor_road","name:en":"Luchuan E. Street","name":"\u7da0\u5ddd\u6771\u8857","sort_key":17,"is_bridge":"no","source":"openstreetmap","is_link":"no","oneway":"yes","is_tunnel":"no","id":321570653,"highway":"residential"}},{"geometry":{"type":"LineString","coordinates":[[120.679973,24.137897],[120.681557,24.136504]]},"type":"Feature","properties":{"kind":"major_road","name:en":"Minquan Road","name":"\u6c11\u6b0a\u8def","sort_key":19,"is_bridge":"no","source":"openstreetmap","is_link":"no","oneway":"yes","is_tunnel":"no","id":336863684,"highway":"tertiary"}},{"geometry":{"type":"LineString","coordinates":[[120.690200,24.128294],[120.688670,24.128288]]},"type":"Feature","properties":{"kind":"minor_road","is_bridge":"no","sort_key":17,"source":"openstreetmap","is_link":"no","oneway":"no","is_tunnel":"no","id":288628099,"highway":"residential"}},{"geometry":{"type":"LineString","coordinates":[[120.693317,24.126702],[120.693182,24.127045],[120.693202,24.132670],[120.693076,24.132843]]},"type":"Feature","properties":{"kind":"minor_road","name:en":"Daxing Street","name":"\u5927\u8208\u8857","sort_key":17,"is_bridge":"no","source":"openstreetmap","is_link":"no","oneway":"yes","is_tunnel":"no","id":288628111,"highway":"residential"}},{"geometry":{"type":"LineString","coordinates":[[120.686023,24.138899],[120.689435,24.138764]]},"type":"Feature","properties":{"kind":"minor_road","sort_key":17,"source":"openstreetmap","is_link":"no","is_bridge":"no","is_tunnel":"no","id":223056026,"highway":"residential"}},{"geometry":{"type":"LineString","coordinates":[[120.685647,24.137513],[120.685405,24.137190],[120.685212,24.137312]]},"type":"Feature","properties":{"kind":"minor_road","is_bridge":"no","sort_key":17,"source":"openstreetmap","is_link":"no","oneway":"yes","is_tunnel":"no","id":320900123,"highway":"residential"}},{"geometry":{"type":"LineString","coordinates":[[120.682332,24.135482],[120.682564,24.135578]]},"type":"Feature","properties":{"sort_key":23,"kind":"rail","source":"openstreetmap","is_link":"no","is_bridge":"no","is_tunnel":"no","railway":"rail","id":322512937}},{"geometry":{"type":"LineString","coordinates":[[120.675201,24.132205],[120.676185,24.132575]]},"type":"Feature","properties":{"kind":"minor_road","is_bridge":"no","sort_key":17,"source":"openstreetmap","is_link":"no","oneway":"yes","is_tunnel":"no","id":219480358,"highway":"residential"}},{"geometry":{"type":"LineString","coordinates":[[120.689726,24.132848],[120.676352,24.127232]]},"type":"Feature","properties":{"kind":"minor_road","name:en":"Zhongxiao Road","name":"\u5fe0\u5b5d\u8def","sort_key":17,"is_bridge":"no","source":"openstreetmap","is_link":"no","oneway":"no","is_tunnel":"no","id":103395407,"highway":"residential"}},{"geometry":{"type":"LineString","coordinates":[[120.676414,24.126702],[120.676467,24.128432],[120.680110,24.129951]]},"type":"Feature","properties":{"kind":"minor_road","sort_key":17,"source":"openstreetmap","is_link":"no","is_bridge":"no","is_tunnel":"no","id":331477455,"highway":"residential"}},{"geometry":{"type":"LineString","coordinates":[[120.679380,24.132875],[120.682953,24.134381]]},"type":"Feature","properties":{"kind":"major_road","name:en":"Fuxing Road Sec. 3","name":"\u5fa9\u8208\u8def\u4e09\u6bb5","sort_key":20,"is_bridge":"no","source":"openstreetmap","is_link":"no","oneway":"yes","is_tunnel":"no","ref":"136","id":331477456,"highway":"secondary"}},{"geometry":{"type":"LineString","coordinates":[[120.678306,24.133612],[120.680018,24.130132]]},"type":"Feature","properties":{"kind":"minor_road","name:en":"Zhengyi Street","name":"\u6b63\u7fa9\u8857","sort_key":17,"is_bridge":"no","source":"openstreetmap","is_link":"no","oneway":"no","is_tunnel":"no","id":95779680,"highway":"residential"}},{"geometry":{"type":"LineString","coordinates":[[120.689364,24.137263],[120.689242,24.137198]]},"type":"Feature","properties":{"kind":"minor_road","sort_key":17,"source":"openstreetmap","is_link":"no","is_bridge":"no","is_tunnel":"no","id":219488751,"highway":"unclassified"}},{"geometry":{"type":"LineString","coordinates":[[120.684853,24.128961],[120.690376,24.128931]]},"type":"Feature","properties":{"kind":"minor_road","name:en":"Jianzhong Street","name":"\u5efa\u4e2d\u8857","sort_key":17,"is_bridge":"no","source":"openstreetmap","is_link":"no","oneway":"no","is_tunnel":"no","id":288628109,"highway":"residential"}},{"geometry":{"type":"LineString","coordinates":[[120.683965,24.134907],[120.683590,24.135674],[120.684913,24.136200]]},"type":"Feature","properties":{"kind":"minor_road","name":"\u5fa9\u8208\u8def\u56db\u6bb537\u5df7","sort_key":17,"source":"openstreetmap","is_link":"no","is_bridge":"no","is_tunnel":"no","id":344305680,"highway":"residential"}},{"geometry":{"type":"LineString","coordinates":[[120.682561,24.137135],[120.682442,24.137231]]},"type":"Feature","properties":{"kind":"minor_road","is_bridge":"yes","name":"\u6c11\u65cf\u7da0\u6a4b","sort_key":17,"source":"openstreetmap","is_link":"no","oneway":"yes","is_tunnel":"no","id":103532154,"highway":"residential"}},{"geometry":{"type":"LineString","coordinates":[[120.685875,24.140137],[120.692285,24.139966]]},"type":"Feature","properties":{"kind":"major_road","name:en":"Nanjing Road","name":"\u5357\u4eac\u8def","sort_key":19,"source":"openstreetmap","is_link":"no","is_bridge":"no","is_tunnel":"no","id":321570655,"highway":"tertiary"}},{"geometry":{"type":"LineString","coordinates":[[120.689248,24.140089],[120.689183,24.139830],[120.689492,24.138787]]},"type":"Feature","properties":{"kind":"minor_road","is_bridge":"no","name":"\u5fa9\u8208\u8def\u56db\u6bb5","sort_key":17,"source":"openstreetmap","is_link":"no","oneway":"yes","is_tunnel":"no","id":219488761,"highway":"unclassified"}},{"geometry":{"type":"LineString","coordinates":[[120.674313,24.137325],[120.678110,24.134003]]},"type":"Feature","properties":{"kind":"minor_road","name:en":"Kangle Street","name":"\u5eb7\u6a02\u8857","sort_key":17,"is_bridge":"no","source":"openstreetmap","is_link":"no","oneway":"no","is_tunnel":"no","id":95779681,"highway":"residential"}},{"geometry":{"type":"LineString","coordinates":[[120.684873,24.137688],[120.684435,24.137352]]},"type":"Feature","properties":{"kind":"major_road","name:en":"Jianguo Road","name":"\u5efa\u570b\u8def","sort_key":19,"is_bridge":"no","source":"openstreetmap","is_link":"no","oneway":"yes","is_tunnel":"no","id":273016357,"highway":"tertiary"}},{"geometry":{"type":"LineString","coordinates":[[120.682306,24.135749],[120.682386,24.135829]]},"type":"Feature","properties":{"kind":"major_road","name:en":"Jianguo Road","name":"\u5efa\u570b\u8def","sort_key":19,"is_bridge":"no","source":"openstreetmap","is_link":"no","oneway":"yes","is_tunnel":"no","id":328093152,"highway":"tertiary"}},{"geometry":{"type":"LineString","coordinates":[[120.677286,24.140182],[120.679973,24.137897]]},"type":"Feature","properties":{"kind":"major_road","name:en":"Minquan Road","name":"\u6c11\u6b0a\u8def","sort_key":19,"is_bridge":"no","source":"openstreetmap","is_link":"no","oneway":"yes","is_tunnel":"no","id":335529307,"highway":"tertiary"}},{"geometry":{"type":"LineString","coordinates":[[120.681557,24.136504],[120.682264,24.135849]]},"type":"Feature","properties":{"kind":"major_road","name:en":"Minquan Road","name":"\u6c11\u6b0a\u8def","sort_key":19,"is_bridge":"no","source":"openstreetmap","is_link":"no","oneway":"yes","is_tunnel":"no","id":359185425,"highway":"tertiary"}},{"geometry":{"type":"LineString","coordinates":[[120.683334,24.137804],[120.684384,24.137254]]},"type":"Feature","properties":{"kind":"minor_road","name:en":"Zhongshan Road","name":"\u4e2d\u5c71\u8def","sort_key":17,"is_bridge":"no","source":"openstreetmap","is_link":"no","oneway":"yes","is_tunnel":"no","id":359319595,"highway":"residential"}},{"geometry":{"type":"LineString","coordinates":[[120.686080,24.139002],[120.686040,24.139718]]},"type":"Feature","properties":{"kind":"major_road","name:en":"Jianguo Road","name":"\u5efa\u570b\u8def","sort_key":19,"source":"openstreetmap","is_link":"no","is_bridge":"no","is_tunnel":"no","id":212399749,"highway":"tertiary"}},{"geometry":{"type":"LineString","coordinates":[[120.695429,24.141816],[120.695801,24.142008]]},"type":"Feature","properties":{"kind":"minor_road","sort_key":17,"source":"openstreetmap","is_link":"no","is_bridge":"no","is_tunnel":"no","id":202795154,"highway":"unclassified"}},{"geometry":{"type":"LineString","coordinates":[[120.682644,24.146044],[120.682571,24.146105]]},"type":"Feature","properties":{"kind":"major_road","name:en":"Jingwu Road","name":"\u7cbe\u6b66\u8def","sort_key":19,"is_bridge":"no","source":"openstreetmap","is_link":"no","oneway":"yes","is_tunnel":"no","id":335529310,"highway":"tertiary"}},{"geometry":{"type":"LineString","coordinates":[[120.685458,24.129624],[120.686160,24.129632]]},"type":"Feature","properties":{"kind":"minor_road","is_bridge":"no","sort_key":17,"source":"openstreetmap","is_link":"no","oneway":"yes","is_tunnel":"no","id":335571416,"highway":"residential"}},{"geometry":{"type":"LineString","coordinates":[[120.690308,24.126702],[120.690386,24.129629],[120.690294,24.131645]]},"type":"Feature","properties":{"kind":"major_road","name:en":"Dazhi Road","name":"\u5927\u667a\u8def","sort_key":19,"is_bridge":"no","source":"openstreetmap","is_link":"no","oneway":"yes","is_tunnel":"no","id":211686553,"highway":"tertiary"}},{"geometry":{"type":"LineString","coordinates":[[120.677187,24.133679],[120.675932,24.133103]]},"type":"Feature","properties":{"name:en":"Jianguo Road","name":"\u5efa\u570b\u8def","sort_key":19,"kind":"major_road","is_bridge":"no","source":"openstreetmap","is_link":"no","oneway":"yes","is_tunnel":"no","id":219480373,"highway":"tertiary"}},{"geometry":{"type":"LineString","coordinates":[[120.677240,24.133594],[120.682306,24.135749]]},"type":"Feature","properties":{"kind":"major_road","name:en":"Jianguo Road","name":"\u5efa\u570b\u8def","sort_key":19,"is_bridge":"no","source":"openstreetmap","is_link":"no","oneway":"yes","is_tunnel":"no","id":219480372,"highway":"tertiary"}},{"geometry":{"type":"LineString","coordinates":[[120.694392,24.146754],[120.694379,24.142756]]},"type":"Feature","properties":{"kind":"major_road","name:en":"Jinhua Road","name":"\u9032\u5316\u8def","sort_key":21,"is_bridge":"no","source":"openstreetmap","is_link":"no","oneway":"yes","is_tunnel":"no","ref":"3","id":211842935,"highway":"primary"}},{"geometry":{"type":"LineString","coordinates":[[120.680853,24.145404],[120.679375,24.146754]]},"type":"Feature","properties":{"kind":"minor_road","is_bridge":"no","name":"\u516c\u5712\u8def","sort_key":17,"source":"openstreetmap","is_link":"no","oneway":"yes","is_tunnel":"no","id":219177552,"highway":"residential"}},{"geometry":{"type":"LineString","coordinates":[[120.676004,24.132824],[120.676247,24.132923]]},"type":"Feature","properties":{"kind":"rail","name":"\u53f0\u4e2d\u7dda(Taichung Line)","sort_key":23,"source":"openstreetmap","is_link":"no","is_bridge":"yes","is_tunnel":"no","railway":"rail","id":322512933}},{"geometry":{"type":"LineString","coordinates":[[120.678399,24.146738],[120.674382,24.142856]]},"type":"Feature","properties":{"kind":"minor_road","name:en":"Zhonghua Road Sec. 1","name":"\u4e2d\u83ef\u8def\u4e00\u6bb5","sort_key":17,"is_bridge":"no","source":"openstreetmap","is_link":"no","oneway":"no","is_tunnel":"no","id":103643440,"highway":"residential"}},{"geometry":{"type":"LineString","coordinates":[[120.676703,24.131866],[120.676321,24.132732]]},"type":"Feature","properties":{"kind":"minor_road","name:en":"Guoguang Road","name":"\u570b\u5149\u8def","sort_key":17,"is_bridge":"no","source":"openstreetmap","is_link":"no","oneway":"yes","is_tunnel":"no","id":219480367,"highway":"residential"}},{"geometry":{"type":"LineString","coordinates":[[120.678990,24.127021],[120.678232,24.126702]]},"type":"Feature","properties":{"kind":"major_road","name:en":"Jiancheng Road","name":"\u5efa\u6210\u8def","sort_key":19,"is_bridge":"no","source":"openstreetmap","is_link":"no","oneway":"yes","is_tunnel":"no","id":282747665,"highway":"tertiary"}},{"geometry":{"type":"LineString","coordinates":[[120.677497,24.133830],[120.675979,24.133208]]},"type":"Feature","properties":{"kind":"minor_road","is_bridge":"no","sort_key":17,"source":"openstreetmap","is_link":"no","oneway":"yes","is_tunnel":"no","id":219480360,"highway":"residential"}},{"geometry":{"type":"LineString","coordinates":[[120.676255,24.134323],[120.676960,24.133645]]},"type":"Feature","properties":{"kind":"minor_road","name:en":"Fayuanqian Street","name":"\u6cd5\u9662\u524d\u8857","sort_key":17,"is_bridge":"no","source":"openstreetmap","is_link":"no","oneway":"no","is_tunnel":"no","id":331613654,"highway":"residential"}},{"geometry":{"type":"LineString","coordinates":[[120.673828,24.146016],[120.677261,24.143057]]},"type":"Feature","properties":{"kind":"minor_road","name:en":"Zhongshan Road","name":"\u4e2d\u5c71\u8def","sort_key":17,"is_bridge":"no","source":"openstreetmap","is_link":"no","oneway":"yes","is_tunnel":"no","id":271740716,"highway":"residential"}},{"geometry":{"type":"LineString","coordinates":[[120.674286,24.128834],[120.674795,24.129020]]},"type":"Feature","properties":{"kind":"minor_road","is_bridge":"no","name":"\u5b78\u5e9c\u8def146\u5df7","sort_key":17,"source":"openstreetmap","is_link":"no","oneway":"no","is_tunnel":"no","id":265400368,"highway":"residential"}},{"geometry":{"type":"LineString","coordinates":[[120.691706,24.126702],[120.691711,24.131027],[120.691138,24.132123]]},"type":"Feature","properties":{"kind":"minor_road","name:en":"Dazhen Street","name":"\u5927\u632f\u8857","sort_key":17,"is_bridge":"no","source":"openstreetmap","is_link":"no","oneway":"no","is_tunnel":"no","id":288628092,"highway":"residential"}},{"geometry":{"type":"LineString","coordinates":[[120.682564,24.135578],[120.689624,24.138530]]},"type":"Feature","properties":{"kind":"rail","name":"\u53f0\u4e2d\u7dda(Taichung Line)","sort_key":23,"source":"openstreetmap","is_link":"no","is_bridge":"no","is_tunnel":"no","railway":"rail","id":322512938}},{"geometry":{"type":"LineString","coordinates":[[120.678360,24.139264],[120.682927,24.143668]]},"type":"Feature","properties":{"kind":"minor_road","name:en":"Pingdeng Street","name":"\u5e73\u7b49\u8857","sort_key":17,"is_bridge":"no","source":"openstreetmap","is_link":"no","oneway":"yes","is_tunnel":"no","id":82257461,"highway":"residential"}},{"geometry":{"type":"LineString","coordinates":[[120.679278,24.144036],[120.685707,24.138367]]},"type":"Feature","properties":{"kind":"minor_road","name:en":"Chenggong Road","name":"\u6210\u529f\u8def","sort_key":17,"is_bridge":"no","source":"openstreetmap","is_link":"no","oneway":"yes","is_tunnel":"no","id":272512027,"highway":"residential"}},{"geometry":{"type":"LineString","coordinates":[[120.682571,24.146105],[120.681746,24.146469],[120.681433,24.146754]]},"type":"Feature","properties":{"kind":"minor_road","name:en":"Jingwu Road","name":"\u7cbe\u6b66\u8def","sort_key":17,"is_bridge":"no","source":"openstreetmap","is_link":"no","oneway":"yes","is_tunnel":"no","id":219177558,"highway":"residential"}},{"geometry":{"type":"LineString","coordinates":[[120.686465,24.144981],[120.686702,24.145534],[120.686578,24.146008],[120.687075,24.146304]]},"type":"Feature","properties":{"kind":"major_road","is_bridge":"no","sort_key":18,"source":"openstreetmap","is_link":"yes","oneway":"yes","is_tunnel":"no","id":241887070,"highway":"tertiary_link"}},{"geometry":{"type":"LineString","coordinates":[[120.679973,24.137897],[120.680027,24.137944]]},"type":"Feature","properties":{"kind":"major_road","name:en":"Ziyou Road Sec. 1","name":"\u81ea\u7531\u8def\u4e00\u6bb5","sort_key":19,"is_bridge":"no","source":"openstreetmap","is_link":"no","oneway":"no","is_tunnel":"no","id":336863683,"highway":"tertiary"}},{"geometry":{"type":"LineString","coordinates":[[120.686060,24.139798],[120.685955,24.139756]]},"type":"Feature","properties":{"kind":"minor_road","name:en":"Luchuan E. Street","name":"\u7da0\u5ddd\u6771\u8857","sort_key":17,"is_bridge":"no","source":"openstreetmap","is_link":"no","oneway":"yes","is_tunnel":"no","id":56026999,"highway":"residential"}},{"geometry":{"type":"LineString","coordinates":[[120.676613,24.131830],[120.673828,24.130672]]},"type":"Feature","properties":{"kind":"major_road","name:en":"Fuxing Road Sec. 3","name":"\u5fa9\u8208\u8def\u4e09\u6bb5","sort_key":19,"is_bridge":"no","source":"openstreetmap","is_link":"no","oneway":"yes","is_tunnel":"no","id":219488755,"highway":"tertiary"}},{"geometry":{"type":"LineString","coordinates":[[120.690294,24.131645],[120.690200,24.131470],[120.690200,24.126702]]},"type":"Feature","properties":{"kind":"major_road","name:en":"Dazhi Road","name":"\u5927\u667a\u8def","sort_key":19,"is_bridge":"no","source":"openstreetmap","is_link":"no","oneway":"yes","is_tunnel":"no","id":211686558,"highway":"tertiary"}},{"geometry":{"type":"LineString","coordinates":[[120.676352,24.127232],[120.676199,24.127176]]},"type":"Feature","properties":{"kind":"minor_road","name:en":"Zhongxiao Road","name":"\u5fe0\u5b5d\u8def","sort_key":17,"source":"openstreetmap","is_link":"no","is_bridge":"yes","is_tunnel":"no","id":141031894,"highway":"residential"}},{"geometry":{"type":"LineString","coordinates":[[120.686265,24.146149],[120.689019,24.146754]]},"type":"Feature","properties":{"kind":"major_road","name:en":"Jingwu Road","name":"\u7cbe\u6b66\u8def","sort_key":19,"is_bridge":"no","source":"openstreetmap","is_link":"no","oneway":"yes","is_tunnel":"no","id":292749309,"highway":"tertiary"}},{"geometry":{"type":"LineString","coordinates":[[120.686124,24.146162],[120.686413,24.145475],[120.685795,24.143169]]},"type":"Feature","properties":{"kind":"major_road","name:en":"Shuangshi Road Sec. 1","name":"\u96d9\u5341\u8def\u4e00\u6bb5","sort_key":19,"is_bridge":"no","source":"openstreetmap","is_link":"no","oneway":"yes","is_tunnel":"no","id":335532639,"highway":"tertiary"}},{"geometry":{"type":"LineString","coordinates":[[120.673828,24.142311],[120.674382,24.142856]]},"type":"Feature","properties":{"kind":"minor_road","name:en":"Zhonghua Road Sec. 1","name":"\u4e2d\u83ef\u8def\u4e00\u6bb5","sort_key":17,"is_bridge":"no","source":"openstreetmap","is_link":"no","oneway":"no","is_tunnel":"no","id":120262761,"highway":"residential"}},{"geometry":{"type":"LineString","coordinates":[[120.682587,24.135539],[120.682353,24.135440]]},"type":"Feature","properties":{"name":"\u53f0\u4e2d\u7dda(Taichung Line)","sort_key":23,"kind":"rail","source":"openstreetmap","is_link":"no","is_bridge":"no","is_tunnel":"no","railway":"rail","id":95779683}},{"geometry":{"type":"LineString","coordinates":[[120.679006,24.129603],[120.680068,24.127482]]},"type":"Feature","properties":{"kind":"minor_road","name:en":"Jishi Street","name":"\u6fdf\u4e16\u8857","sort_key":17,"is_bridge":"no","source":"openstreetmap","is_link":"no","oneway":"no","is_tunnel":"no","id":141031905,"highway":"residential"}},{"geometry":{"type":"LineString","coordinates":[[120.683016,24.134516],[120.679333,24.132972]]},"type":"Feature","properties":{"kind":"major_road","name:en":"Fuxing Road Sec. 3","name":"\u5fa9\u8208\u8def\u4e09\u6bb5","sort_key":20,"is_bridge":"no","source":"openstreetmap","is_link":"no","oneway":"yes","is_tunnel":"no","ref":"136","id":219488756,"highway":"secondary"}},{"geometry":{"type":"LineString","coordinates":[[120.681931,24.134068],[120.684327,24.129147]]},"type":"Feature","properties":{"kind":"minor_road","name:en":"Minyi Street","name":"\u6c11\u610f\u8857","sort_key":17,"is_bridge":"no","source":"openstreetmap","is_link":"no","oneway":"no","is_tunnel":"no","id":331477440,"highway":"residential"}},{"geometry":{"type":"LineString","coordinates":[[120.676703,24.131866],[120.676117,24.132965],[120.675477,24.133615]]},"type":"Feature","properties":{"name:en":"Linsen Road","name":"\u6797\u68ee\u8def","sort_key":20,"kind":"major_road","is_bridge":"no","source":"openstreetmap","is_link":"no","oneway":"yes","is_tunnel":"no","ref":"136","id":219480377,"highway":"secondary"}},{"geometry":{"type":"LineString","coordinates":[[120.685805,24.137641],[120.685647,24.137513]]},"type":"Feature","properties":{"kind":"minor_road","name:en":"Xinmin Street","name":"\u65b0\u6c11\u8857","sort_key":17,"source":"openstreetmap","is_link":"no","is_bridge":"no","is_tunnel":"no","id":333018264,"highway":"residential"}},{"geometry":{"type":"LineString","coordinates":[[120.681510,24.139375],[120.680027,24.137944]]},"type":"Feature","properties":{"kind":"major_road","name:en":"Ziyou Road Sec. 2","name":"\u81ea\u7531\u8def\u4e8c\u6bb5","sort_key":19,"is_bridge":"no","source":"openstreetmap","is_link":"no","oneway":"no","is_tunnel":"no","id":335541102,"highway":"tertiary"}},{"geometry":{"type":"LineString","coordinates":[[120.685820,24.129884],[120.686160,24.129632],[120.695801,24.129624]]},"type":"Feature","properties":{"kind":"minor_road","name:en":"Jiande Street","name":"\u5efa\u5fb7\u8857","sort_key":17,"is_bridge":"no","source":"openstreetmap","is_link":"no","oneway":"no","is_tunnel":"no","id":202795263,"highway":"residential"}},{"geometry":{"type":"LineString","coordinates":[[120.693634,24.132864],[120.693290,24.133251],[120.692582,24.133551],[120.692131,24.133658],[120.691338,24.133551]]},"type":"Feature","properties":{"kind":"minor_road","name:en":"Zhongxiao Road","name":"\u5fe0\u5b5d\u8def","sort_key":17,"is_bridge":"no","source":"openstreetmap","is_link":"no","oneway":"no","is_tunnel":"no","id":211840576,"highway":"residential"}},{"geometry":{"type":"LineString","coordinates":[[120.691914,24.132341],[120.691607,24.133019]]},"type":"Feature","properties":{"kind":"minor_road","name:en":"Fucheng Street","name":"\u798f\u6210\u8857","sort_key":17,"is_bridge":"no","source":"openstreetmap","is_link":"no","oneway":"no","is_tunnel":"no","id":335571419,"highway":"residential"}},{"geometry":{"type":"LineString","coordinates":[[120.695486,24.141018],[120.694470,24.140303],[120.689879,24.138401]]},"type":"Feature","properties":{"kind":"major_road","name:en":"Fuxing E. Road","name":"\u5fa9\u8208\u6771\u8def","sort_key":19,"is_bridge":"no","source":"openstreetmap","is_link":"no","oneway":"no","is_tunnel":"no","id":335571420,"highway":"tertiary"}},{"geometry":{"type":"LineString","coordinates":[[120.695486,24.141018],[120.695801,24.141232]]},"type":"Feature","properties":{"kind":"major_road","name:en":"Fuxing E. Road","name":"\u5fa9\u8208\u6771\u8def","sort_key":19,"is_bridge":"no","source":"openstreetmap","is_link":"no","oneway":"yes","is_tunnel":"no","id":335571421,"highway":"tertiary"}},{"geometry":{"type":"LineString","coordinates":[[120.693070,24.132922],[120.692969,24.132023],[120.693009,24.126702]]},"type":"Feature","properties":{"kind":"minor_road","name:en":"Daxing Street","name":"\u5927\u8208\u8857","sort_key":17,"is_bridge":"no","source":"openstreetmap","is_link":"no","oneway":"yes","is_tunnel":"no","id":211833351,"highway":"residential"}},{"geometry":{"type":"LineString","coordinates":[[120.677347,24.140242],[120.677286,24.140182]]},"type":"Feature","properties":{"kind":"major_road","name:en":"Sanmin Road Sec. 2","name":"\u4e09\u6c11\u8def\u4e8c\u6bb5","sort_key":19,"is_bridge":"no","source":"openstreetmap","is_link":"no","oneway":"no","is_tunnel":"no","id":335532641,"highway":"tertiary"}},{"geometry":{"type":"LineString","coordinates":[[120.692462,24.140035],[120.694048,24.140721],[120.695340,24.141712]]},"type":"Feature","properties":{"kind":"major_road","name:en":"Nanjing Road","name":"\u5357\u4eac\u8def","sort_key":19,"source":"openstreetmap","is_link":"no","is_bridge":"no","is_tunnel":"no","id":82257472,"highway":"tertiary"}},{"geometry":{"type":"LineString","coordinates":[[120.693646,24.146310],[120.693646,24.146754]]},"type":"Feature","properties":{"kind":"minor_road","sort_key":17,"source":"openstreetmap","is_link":"no","is_bridge":"no","is_tunnel":"no","id":288629417,"highway":"residential"}},{"geometry":{"type":"LineString","coordinates":[[120.695340,24.141712],[120.695801,24.142286]]},"type":"Feature","properties":{"kind":"minor_road","name:en":"Nanjin E. Road Sec. 1","name":"\u5357\u4eac\u6771\u8def\u4e00\u6bb5","sort_key":17,"source":"openstreetmap","is_link":"no","is_bridge":"no","is_tunnel":"no","id":321570657,"highway":"residential"}},{"geometry":{"type":"LineString","coordinates":[[120.695563,24.146754],[120.695565,24.146317]]},"type":"Feature","properties":{"kind":"minor_road","sort_key":17,"source":"openstreetmap","is_link":"no","is_bridge":"no","is_tunnel":"no","id":361758017,"highway":"residential"}},{"geometry":{"type":"LineString","coordinates":[[120.679279,24.126702],[120.679157,24.126964]]},"type":"Feature","properties":{"kind":"major_road","name:en":"Guoguang Road","name":"\u570b\u5149\u8def","sort_key":21,"is_bridge":"no","source":"openstreetmap","is_link":"no","oneway":"yes","is_tunnel":"no","ref":"3","id":356724532,"highway":"primary"}},{"geometry":{"type":"LineString","coordinates":[[120.685955,24.139756],[120.684822,24.139206]]},"type":"Feature","properties":{"kind":"minor_road","name:en":"Luchuan E. Street","name":"\u7da0\u5ddd\u6771\u8857","sort_key":17,"is_bridge":"no","source":"openstreetmap","is_link":"no","oneway":"yes","is_tunnel":"no","id":340040470,"highway":"residential"}},{"geometry":{"type":"LineString","coordinates":[[120.674603,24.146754],[120.682256,24.140099]]},"type":"Feature","properties":{"kind":"major_road","name:en":"Taiwan Boulevard Sec. 1","name":"\u81fa\u7063\u5927\u9053\u4e00\u6bb5","sort_key":21,"old_name":"\u53f0\u4e2d\u6e2f\u8def\u4e00\u6bb5","is_bridge":"no","source":"openstreetmap","is_link":"no","oneway":"yes","is_tunnel":"no","ref":"12","id":212401610,"highway":"primary"}},{"geometry":{"type":"LineString","coordinates":[[120.684435,24.137352],[120.684384,24.137254]]},"type":"Feature","properties":{"kind":"major_road","name:en":"Jianguo Road","name":"\u5efa\u570b\u8def","sort_key":19,"is_bridge":"no","source":"openstreetmap","is_link":"no","oneway":"yes","is_tunnel":"no","id":271086439,"highway":"tertiary"}},{"geometry":{"type":"LineString","coordinates":[[120.679054,24.144219],[120.679278,24.144036]]},"type":"Feature","properties":{"kind":"minor_road","is_bridge":"yes","name":"\u6210\u529f\u67f3\u6a4b","sort_key":17,"source":"openstreetmap","is_link":"no","oneway":"yes","is_tunnel":"no","id":272512028,"highway":"residential"}},{"geometry":{"type":"LineString","coordinates":[[120.688796,24.130265],[120.692969,24.132023]]},"type":"Feature","properties":{"kind":"minor_road","name:en":"Jianxin Street","name":"\u5efa\u65b0\u8857","sort_key":17,"is_bridge":"no","source":"openstreetmap","is_link":"no","oneway":"no","is_tunnel":"no","id":288595686,"highway":"residential"}},{"geometry":{"type":"LineString","coordinates":[[120.679190,24.146754],[120.680853,24.145404]]},"type":"Feature","properties":{"kind":"minor_road","is_bridge":"no","name":"\u516c\u5712\u8def","sort_key":17,"source":"openstreetmap","is_link":"no","oneway":"yes","is_tunnel":"no","id":219177553,"highway":"residential"}},{"geometry":{"type":"LineString","coordinates":[[120.677261,24.143057],[120.677448,24.142887]]},"type":"Feature","properties":{"kind":"minor_road","is_bridge":"yes","name":"\u4e2d\u5c71\u67f3\u6a4b","sort_key":17,"source":"openstreetmap","is_link":"no","oneway":"yes","is_tunnel":"no","id":271452250,"highway":"residential"}},{"geometry":{"type":"LineString","coordinates":[[120.686924,24.136132],[120.689342,24.131236]]},"type":"Feature","properties":{"kind":"minor_road","name:en":"Dayong Street","name":"\u5927\u52c7\u8857","sort_key":17,"is_bridge":"no","source":"openstreetmap","is_link":"no","oneway":"no","is_tunnel":"no","id":56064301,"highway":"residential"}},{"geometry":{"type":"LineString","coordinates":[[120.685959,24.135720],[120.687789,24.132028]]},"type":"Feature","properties":{"kind":"minor_road","name:en":"Lide Street","name":"\u7acb\u5fb7\u8857","sort_key":17,"is_bridge":"no","source":"openstreetmap","is_link":"no","oneway":"no","is_tunnel":"no","id":202795197,"highway":"residential"}},{"geometry":{"type":"LineString","coordinates":[[120.682353,24.135440],[120.680420,24.134631]]},"type":"Feature","properties":{"kind":"rail","name":"\u53f0\u4e2d\u7dda(Taichung Line)","sort_key":23,"source":"openstreetmap","is_link":"no","is_bridge":"no","is_tunnel":"no","railway":"rail","id":219485328}},{"geometry":{"type":"LineString","coordinates":[[120.676263,24.132888],[120.676024,24.132790]]},"type":"Feature","properties":{"kind":"rail","name":"\u53f0\u4e2d\u7dda(Taichung Line)","sort_key":23,"source":"openstreetmap","is_link":"no","is_bridge":"yes","is_tunnel":"no","railway":"rail","id":322512930}},{"geometry":{"type":"LineString","coordinates":[[120.673828,24.131916],[120.676004,24.132824]]},"type":"Feature","properties":{"kind":"rail","name":"\u53f0\u4e2d\u7dda(Taichung Line)","sort_key":23,"source":"openstreetmap","is_link":"no","is_bridge":"no","is_tunnel":"no","railway":"rail","id":322512932}},{"geometry":{"type":"LineString","coordinates":[[120.689642,24.138503],[120.682587,24.135539]]},"type":"Feature","properties":{"kind":"rail","name":"\u53f0\u4e2d\u7dda(Taichung Line)","sort_key":23,"source":"openstreetmap","is_link":"no","is_bridge":"no","is_tunnel":"no","railway":"rail","id":322512939}},{"geometry":{"type":"LineString","coordinates":[[120.676613,24.131830],[120.676654,24.131742]]},"type":"Feature","properties":{"kind":"major_road","is_bridge":"no","sort_key":20,"source":"openstreetmap","is_link":"no","oneway":"yes","is_tunnel":"no","id":219480351,"highway":"secondary"}},{"geometry":{"type":"LineString","coordinates":[[120.676746,24.131776],[120.676703,24.131866]]},"type":"Feature","properties":{"kind":"major_road","is_bridge":"no","sort_key":20,"source":"openstreetmap","is_link":"no","oneway":"yes","is_tunnel":"no","id":219480352,"highway":"secondary"}},{"geometry":{"type":"LineString","coordinates":[[120.689082,24.138267],[120.687332,24.137425],[120.683196,24.135797]]},"type":"Feature","properties":{"kind":"rail","sort_key":23,"source":"openstreetmap","is_link":"no","is_bridge":"no","is_tunnel":"no","railway":"rail","id":322512941}},{"geometry":{"type":"LineString","coordinates":[[120.681215,24.135399],[120.679274,24.137210]]},"type":"Feature","properties":{"kind":"minor_road","name:en":"Juren Street","name":"\u5c45\u4ec1\u8857","sort_key":17,"is_bridge":"no","source":"openstreetmap","is_link":"no","oneway":"no","is_tunnel":"no","id":325214324,"highway":"residential"}},{"geometry":{"type":"LineString","coordinates":[[120.676321,24.132732],[120.675477,24.133615]]},"type":"Feature","properties":{"kind":"minor_road","name:en":"Linsen Road","name":"\u6797\u68ee\u8def","sort_key":17,"is_bridge":"no","source":"openstreetmap","is_link":"no","oneway":"yes","is_tunnel":"no","id":219480374,"highway":"residential"}},{"geometry":{"type":"LineString","coordinates":[[120.675477,24.133615],[120.673934,24.134985]]},"type":"Feature","properties":{"kind":"major_road","name:en":"Linsen Road","name":"\u6797\u68ee\u8def","sort_key":19,"is_bridge":"no","source":"openstreetmap","is_link":"no","oneway":"yes","is_tunnel":"no","id":219481946,"highway":"tertiary"}},{"geometry":{"type":"LineString","coordinates":[[120.682256,24.140099],[120.681510,24.139375]]},"type":"Feature","properties":{"kind":"major_road","name:en":"Ziyou Road Sec. 2","name":"\u81ea\u7531\u8def\u4e8c\u6bb5","sort_key":19,"is_bridge":"no","source":"openstreetmap","is_link":"no","oneway":"no","is_tunnel":"no","id":335541104,"highway":"tertiary"}},{"geometry":{"type":"LineString","coordinates":[[120.673862,24.134926],[120.675408,24.133545]]},"type":"Feature","properties":{"kind":"major_road","name:en":"Linsen Road","name":"\u6797\u68ee\u8def","sort_key":19,"is_bridge":"no","source":"openstreetmap","is_link":"no","oneway":"yes","is_tunnel":"no","id":335532646,"highway":"tertiary"}},{"geometry":{"type":"LineString","coordinates":[[120.686578,24.146008],[120.687200,24.145757],[120.692512,24.145375]]},"type":"Feature","properties":{"kind":"minor_road","name":"\u5bcc\u69ae\u8857","sort_key":17,"source":"openstreetmap","is_link":"no","is_bridge":"no","is_tunnel":"no","id":288629424,"highway":"residential"}},{"geometry":{"type":"LineString","coordinates":[[120.673828,24.134956],[120.673862,24.134926]]},"type":"Feature","properties":{"kind":"major_road","name:en":"Linsen Road","name":"\u6797\u68ee\u8def","sort_key":19,"is_bridge":"no","source":"openstreetmap","is_link":"no","oneway":"yes","is_tunnel":"no","id":335532644,"highway":"tertiary"}},{"geometry":{"type":"LineString","coordinates":[[120.683033,24.145718],[120.683591,24.146082],[120.684022,24.146206],[120.686124,24.146162]]},"type":"Feature","properties":{"kind":"major_road","name:en":"Jingwu Road","name":"\u7cbe\u6b66\u8def","sort_key":19,"is_bridge":"no","source":"openstreetmap","is_link":"no","oneway":"yes","is_tunnel":"no","id":292749304,"highway":"tertiary"}},{"geometry":{"type":"LineString","coordinates":[[120.675995,24.141447],[120.675782,24.141631]]},"type":"Feature","properties":{"kind":"major_road","is_bridge":"yes","name":"\u6c11\u6b0a\u67f3\u6a4b","sort_key":19,"source":"openstreetmap","is_link":"no","oneway":"yes","is_tunnel":"no","id":292836022,"highway":"tertiary"}},{"geometry":{"type":"LineString","coordinates":[[120.677347,24.140242],[120.675995,24.141447]]},"type":"Feature","properties":{"kind":"major_road","name:en":"Minquan Road","name":"\u6c11\u6b0a\u8def","sort_key":19,"is_bridge":"no","source":"openstreetmap","is_link":"no","oneway":"yes","is_tunnel":"no","id":335532642,"highway":"tertiary"}},{"geometry":{"type":"LineString","coordinates":[[120.686041,24.140808],[120.685960,24.143149]]},"type":"Feature","properties":{"kind":"major_road","name:en":"Shuangshi Road Sec. 1","name":"\u96d9\u5341\u8def\u4e00\u6bb5","sort_key":19,"is_bridge":"no","source":"openstreetmap","is_link":"no","oneway":"yes","is_tunnel":"no","id":340121431,"highway":"tertiary"}},{"geometry":{"type":"LineString","coordinates":[[120.681557,24.136504],[120.682382,24.137279]]},"type":"Feature","properties":{"kind":"minor_road","name:en":"Luchuan W. Street","name":"\u7da0\u5ddd\u897f\u8857","sort_key":17,"is_bridge":"no","source":"openstreetmap","is_link":"no","oneway":"yes","is_tunnel":"no","id":359185426,"highway":"residential"}},{"geometry":{"type":"LineString","coordinates":[[120.688459,24.130875],[120.687789,24.132028]]},"type":"Feature","properties":{"kind":"minor_road","name:en":"Lide Street","name":"\u7acb\u5fb7\u8857","sort_key":17,"is_bridge":"no","source":"openstreetmap","is_link":"no","oneway":"no","is_tunnel":"no","id":292836032,"highway":"residential"}},{"geometry":{"type":"LineString","coordinates":[[120.679218,24.145550],[120.678399,24.146738]]},"type":"Feature","properties":{"kind":"minor_road","name:en":"Guangfu Road","name":"\u5149\u5fa9\u8def","sort_key":17,"is_bridge":"no","source":"openstreetmap","is_link":"no","oneway":"yes","is_tunnel":"no","id":235990436,"highway":"residential"}},{"geometry":{"type":"LineString","coordinates":[[120.679038,24.126915],[120.679157,24.126964]]},"type":"Feature","properties":{"kind":"major_road","name:en":"Jiancheng Road","name":"\u5efa\u6210\u8def","sort_key":21,"is_bridge":"no","source":"openstreetmap","is_link":"no","oneway":"yes","is_tunnel":"no","ref":"3","id":211840570,"highway":"primary"}},{"geometry":{"type":"LineString","coordinates":[[120.678675,24.143282],[120.678066,24.143821]]},"type":"Feature","properties":{"kind":"major_road","name:en":"Taiwan Boulevard Sec. 1","name":"\u81fa\u7063\u5927\u9053\u4e00\u6bb5","sort_key":21,"is_bridge":"no","source":"openstreetmap","is_link":"no","oneway":"yes","is_tunnel":"no","ref":"12","id":314151556,"highway":"primary"}},{"geometry":{"type":"LineString","coordinates":[[120.683334,24.137804],[120.682591,24.137106]]},"type":"Feature","properties":{"kind":"minor_road","name:en":"Luchuan E. Street","name":"\u7da0\u5ddd\u6771\u8857","sort_key":17,"is_bridge":"no","source":"openstreetmap","is_link":"no","oneway":"yes","is_tunnel":"no","id":359319589,"highway":"residential"}},{"geometry":{"type":"LineString","coordinates":[[120.692517,24.146297],[120.695801,24.146319]]},"type":"Feature","properties":{"kind":"minor_road","sort_key":17,"source":"openstreetmap","is_link":"no","is_bridge":"no","is_tunnel":"no","id":288629423,"highway":"residential"}},{"geometry":{"type":"LineString","coordinates":[[120.689241,24.142932],[120.689498,24.146754]]},"type":"Feature","properties":{"kind":"minor_road","name:en":"Fuxing Road Section 5","name":"\u5fa9\u8208\u8def\u4e94\u6bb5","sort_key":17,"source":"openstreetmap","is_link":"no","is_bridge":"no","is_tunnel":"no","id":361758042,"highway":"residential"}},{"geometry":{"type":"LineString","coordinates":[[120.685795,24.143169],[120.685960,24.143149]]},"type":"Feature","properties":{"kind":"major_road","name:en":"Ziyou Road Sec. 3","name":"\u81ea\u7531\u8def\u4e09\u6bb5","sort_key":19,"is_bridge":"no","source":"openstreetmap","is_link":"no","oneway":"no","is_tunnel":"no","id":57935073,"highway":"tertiary"}},{"geometry":{"type":"LineString","coordinates":[[120.686124,24.146162],[120.686265,24.146149]]},"type":"Feature","properties":{"kind":"major_road","name:en":"Jingwu Road","name":"\u7cbe\u6b66\u8def","sort_key":19,"is_bridge":"no","source":"openstreetmap","is_link":"no","oneway":"yes","is_tunnel":"no","id":335532640,"highway":"tertiary"}},{"geometry":{"type":"LineString","coordinates":[[120.684707,24.137851],[120.684158,24.138579]]},"type":"Feature","properties":{"kind":"major_road","name:en":"Taiwan Boulevard Sec. 1","name":"\u81fa\u7063\u5927\u9053\u4e00\u6bb5","sort_key":21,"is_bridge":"no","source":"openstreetmap","is_link":"no","oneway":"yes","is_tunnel":"no","ref":"12","id":289048423,"highway":"primary"}},{"geometry":{"type":"LineString","coordinates":[[120.684988,24.137581],[120.685270,24.137770],[120.686049,24.138789],[120.686080,24.139002]]},"type":"Feature","properties":{"kind":"major_road","name:en":"Jianguo Road","name":"\u5efa\u570b\u8def","sort_key":19,"is_bridge":"no","source":"openstreetmap","is_link":"no","oneway":"yes","is_tunnel":"no","id":289048426,"highway":"tertiary"}},{"geometry":{"type":"LineString","coordinates":[[120.686214,24.146243],[120.683883,24.146270],[120.682956,24.145798],[120.682707,24.145853],[120.682644,24.146044]]},"type":"Feature","properties":{"kind":"major_road","name:en":"Jingwu Road","name":"\u7cbe\u6b66\u8def","sort_key":19,"is_bridge":"no","source":"openstreetmap","is_link":"no","oneway":"yes","is_tunnel":"no","id":335529308,"highway":"tertiary"}},{"geometry":{"type":"LineString","coordinates":[[120.682644,24.146044],[120.682937,24.146754]]},"type":"Feature","properties":{"kind":"major_road","name:en":"Sanmin Road Sec. 3","name":"\u4e09\u6c11\u8def\u4e09\u6bb5","sort_key":19,"is_bridge":"no","source":"openstreetmap","is_link":"no","oneway":"yes","is_tunnel":"no","id":335529311,"highway":"tertiary"}},{"geometry":{"type":"LineString","coordinates":[[120.682841,24.146754],[120.682465,24.145853]]},"type":"Feature","properties":{"kind":"major_road","name:en":"Sanmin Road Sec. 3","name":"\u4e09\u6c11\u8def\u4e09\u6bb5","sort_key":19,"is_bridge":"no","source":"openstreetmap","is_link":"no","oneway":"yes","is_tunnel":"no","id":339759645,"highway":"tertiary"}},{"geometry":{"type":"LineString","coordinates":[[120.685960,24.143149],[120.686547,24.145395],[120.686265,24.146149]]},"type":"Feature","properties":{"kind":"major_road","name:en":"Shuangshi Road Sec. 1","name":"\u96d9\u5341\u8def\u4e00\u6bb5","sort_key":19,"is_bridge":"no","source":"openstreetmap","is_link":"no","oneway":"yes","is_tunnel":"no","id":355232301,"highway":"tertiary"}},{"geometry":{"type":"LineString","coordinates":[[120.692982,24.131045],[120.691711,24.131027]]},"type":"Feature","properties":{"kind":"minor_road","name:en":"Jianren Street","name":"\u5efa\u4ec1\u8857","sort_key":17,"is_bridge":"no","source":"openstreetmap","is_link":"no","oneway":"no","is_tunnel":"no","id":288628095,"highway":"residential"}},{"geometry":{"type":"LineString","coordinates":[[120.685707,24.138367],[120.686104,24.138022]]},"type":"Feature","properties":{"kind":"minor_road","int_name":"Chenggong Rd.","name":"\u6210\u529f\u8def","sort_key":17,"source":"openstreetmap","is_link":"no","is_bridge":"no","is_tunnel":"no","id":229906875,"highway":"residential"}},{"geometry":{"type":"LineString","coordinates":[[120.686140,24.144583],[120.692504,24.144111],[120.694387,24.144108]]},"type":"Feature","properties":{"kind":"minor_road","is_bridge":"no","sort_key":17,"source":"openstreetmap","is_link":"no","oneway":"no","is_tunnel":"no","id":288629412,"highway":"residential"}},{"geometry":{"type":"LineString","coordinates":[[120.687351,24.141538],[120.687297,24.140115]]},"type":"Feature","properties":{"kind":"minor_road","sort_key":17,"source":"openstreetmap","is_link":"no","is_bridge":"no","is_tunnel":"no","id":57935068,"highway":"unclassified"}},{"geometry":{"type":"LineString","coordinates":[[120.687630,24.143031],[120.687634,24.141529]]},"type":"Feature","properties":{"kind":"minor_road","sort_key":17,"source":"openstreetmap","is_link":"no","is_bridge":"no","is_tunnel":"no","id":57935058,"highway":"unclassified"}},{"geometry":{"type":"LineString","coordinates":[[120.695093,24.137002],[120.695121,24.138837]]},"type":"Feature","properties":{"kind":"minor_road","is_bridge":"no","sort_key":17,"source":"openstreetmap","is_link":"no","oneway":"no","is_tunnel":"no","id":288595676,"highway":"residential"}},{"geometry":{"type":"LineString","coordinates":[[120.690200,24.130332],[120.694674,24.130305]]},"type":"Feature","properties":{"kind":"minor_road","name:en":"Jiangong Street","name":"\u5efa\u529f\u8857","sort_key":17,"is_bridge":"no","source":"openstreetmap","is_link":"no","oneway":"no","is_tunnel":"no","id":288595685,"highway":"residential"}},{"geometry":{"type":"LineString","coordinates":[[120.695801,24.128843],[120.693100,24.126702]]},"type":"Feature","properties":{"kind":"minor_road","name:en":"Dongguangyuan Road","name":"\u6771\u5149\u5712\u8def","sort_key":17,"is_bridge":"no","source":"openstreetmap","is_link":"no","oneway":"yes","is_tunnel":"no","id":288595694,"highway":"residential"}},{"geometry":{"type":"LineString","coordinates":[[120.691712,24.128916],[120.693189,24.128913]]},"type":"Feature","properties":{"kind":"minor_road","name:en":"Jianzhong E. Street","name":"\u5efa\u4e2d\u6771\u8857","sort_key":17,"is_bridge":"no","source":"openstreetmap","is_link":"no","oneway":"no","is_tunnel":"no","id":288628097,"highway":"residential"}},{"geometry":{"type":"LineString","coordinates":[[120.691710,24.128287],[120.693184,24.128299]]},"type":"Feature","properties":{"kind":"minor_road","name:en":"Jianyong E. Street","name":"\u5efa\u52c7\u6771\u8857","sort_key":17,"is_bridge":"no","source":"openstreetmap","is_link":"no","oneway":"no","is_tunnel":"no","id":288628100,"highway":"residential"}},{"geometry":{"type":"LineString","coordinates":[[120.693191,24.128747],[120.693494,24.128729],[120.694012,24.128424]]},"type":"Feature","properties":{"kind":"minor_road","sort_key":17,"source":"openstreetmap","is_link":"no","is_bridge":"no","is_tunnel":"no","id":288628101,"highway":"residential"}},{"geometry":{"type":"LineString","coordinates":[[120.688668,24.127661],[120.693180,24.127655]]},"type":"Feature","properties":{"kind":"minor_road","name:en":"Jianxing Street","name":"\u5efa\u8208\u8857","sort_key":17,"is_bridge":"no","source":"openstreetmap","is_link":"no","oneway":"no","is_tunnel":"no","id":288628105,"highway":"residential"}},{"geometry":{"type":"LineString","coordinates":[[120.688827,24.127028],[120.693182,24.127045]]},"type":"Feature","properties":{"kind":"minor_road","name:en":"Jianzhi Street","name":"\u5efa\u667a\u8857","sort_key":17,"is_bridge":"no","source":"openstreetmap","is_link":"no","oneway":"no","is_tunnel":"no","id":288628108,"highway":"residential"}},{"geometry":{"type":"LineString","coordinates":[[120.695801,24.141737],[120.695257,24.141184],[120.694036,24.140363],[120.689642,24.138503]]},"type":"Feature","properties":{"kind":"rail","name":"\u53f0\u4e2d\u7dda(Taichung Line)","sort_key":23,"source":"openstreetmap","is_link":"no","is_bridge":"no","is_tunnel":"no","railway":"rail","id":215507178}},{"geometry":{"type":"LineString","coordinates":[[120.695801,24.144683],[120.694380,24.144688]]},"type":"Feature","properties":{"kind":"minor_road","name":"\u5341\u7532\u8def","sort_key":17,"source":"openstreetmap","is_link":"no","is_bridge":"no","is_tunnel":"no","id":216648137,"highway":"residential"}},{"geometry":{"type":"LineString","coordinates":[[120.692462,24.140035],[120.692519,24.146754]]},"type":"Feature","properties":{"kind":"minor_road","name:en":"Jinde Road","name":"\u9032\u5fb7\u8def","sort_key":17,"is_bridge":"no","source":"openstreetmap","is_link":"no","oneway":"no","is_tunnel":"no","id":24295948,"highway":"residential"}},{"geometry":{"type":"LineString","coordinates":[[120.690283,24.140043],[120.690294,24.140698],[120.690094,24.140938],[120.686914,24.141076]]},"type":"Feature","properties":{"kind":"minor_road","sort_key":17,"source":"openstreetmap","is_link":"no","is_bridge":"no","is_tunnel":"no","id":57935071,"highway":"unclassified"}},{"geometry":{"type":"LineString","coordinates":[[120.687899,24.140098],[120.687838,24.138102]]},"type":"Feature","properties":{"kind":"minor_road","sort_key":17,"source":"openstreetmap","is_link":"no","is_bridge":"no","is_tunnel":"no","id":223056028,"highway":"residential"}},{"geometry":{"type":"LineString","coordinates":[[120.695801,24.133052],[120.692818,24.132822],[120.691702,24.132927],[120.690116,24.135929],[120.689098,24.137049]]},"type":"Feature","properties":{"kind":"major_road","name:en":"Zhenxing Road","name":"\u632f\u8208\u8def","sort_key":20,"is_bridge":"no","source":"openstreetmap","is_link":"no","oneway":"no","is_tunnel":"no","ref":"136","id":292836035,"highway":"secondary"}},{"geometry":{"type":"LineString","coordinates":[[120.689098,24.137049],[120.683016,24.134516]]},"type":"Feature","properties":{"kind":"major_road","name:en":"Fuxing Road Sec. 4","name":"\u5fa9\u8208\u8def\u56db\u6bb5","sort_key":20,"is_bridge":"no","source":"openstreetmap","is_link":"no","oneway":"yes","is_tunnel":"no","ref":"136","id":219488760,"highway":"secondary"}},{"geometry":{"type":"LineString","coordinates":[[120.681116,24.126739],[120.680493,24.126736]]},"type":"Feature","properties":{"kind":"minor_road","name":"\u6b63\u7fa9\u8857 238\u5df7","sort_key":17,"source":"openstreetmap","is_link":"no","is_bridge":"no","is_tunnel":"no","id":354974942,"highway":"residential"}},{"geometry":{"type":"LineString","coordinates":[[120.681123,24.127114],[120.680366,24.127115]]},"type":"Feature","properties":{"kind":"minor_road","name":"\u6b63\u7fa9\u8857 220\u5df7","sort_key":17,"source":"openstreetmap","is_link":"no","is_bridge":"no","is_tunnel":"no","id":354974944,"highway":"residential"}},{"geometry":{"type":"LineString","coordinates":[[120.673828,24.127665],[120.684163,24.131993]]},"type":"Feature","properties":{"kind":"minor_road","name:en":"Xinyi S. Street","name":"\u4fe1\u7fa9\u5357\u8857","sort_key":17,"is_bridge":"no","source":"openstreetmap","is_link":"no","oneway":"no","is_tunnel":"no","id":282747708,"highway":"residential"}},{"geometry":{"type":"LineString","coordinates":[[120.674367,24.128626],[120.673828,24.128414]]},"type":"Feature","properties":{"kind":"minor_road","name":"\u5b78\u5e9c\u8def135\u5df7","sort_key":17,"source":"openstreetmap","is_link":"no","is_bridge":"no","is_tunnel":"no","id":355428512,"highway":"residential"}},{"geometry":{"type":"LineString","coordinates":[[120.675477,24.133615],[120.679973,24.137897]]},"type":"Feature","properties":{"kind":"major_road","name:en":"Ziyou Road Sec. 1","name":"\u81ea\u7531\u8def\u4e00\u6bb5","sort_key":19,"is_bridge":"no","source":"openstreetmap","is_link":"no","oneway":"no","is_tunnel":"no","id":56026054,"highway":"tertiary"}},{"geometry":{"type":"LineString","coordinates":[[120.691059,24.141908],[120.692467,24.141886]]},"type":"Feature","properties":{"kind":"minor_road","sort_key":17,"source":"openstreetmap","is_link":"no","is_bridge":"no","is_tunnel":"no","id":57935065,"highway":"unclassified"}},{"geometry":{"type":"LineString","coordinates":[[120.692463,24.140624],[120.690294,24.140698]]},"type":"Feature","properties":{"kind":"minor_road","sort_key":17,"source":"openstreetmap","is_link":"no","is_bridge":"no","is_tunnel":"no","id":57935066,"highway":"unclassified"}},{"geometry":{"type":"LineString","coordinates":[[120.686937,24.141535],[120.686883,24.140648],[120.687315,24.140618]]},"type":"Feature","properties":{"kind":"minor_road","sort_key":17,"source":"openstreetmap","is_link":"no","is_bridge":"no","is_tunnel":"no","id":57935067,"highway":"unclassified"}},{"geometry":{"type":"LineString","coordinates":[[120.688229,24.141509],[120.688177,24.140094]]},"type":"Feature","properties":{"kind":"minor_road","sort_key":17,"source":"openstreetmap","is_link":"no","is_bridge":"no","is_tunnel":"no","id":57935070,"highway":"unclassified"}},{"geometry":{"type":"LineString","coordinates":[[120.689621,24.138851],[120.689248,24.140089]]},"type":"Feature","properties":{"kind":"minor_road","is_bridge":"no","name":"\u5fa9\u8208\u8def\u56db\u6bb5","sort_key":17,"source":"openstreetmap","is_link":"no","oneway":"yes","is_tunnel":"no","id":219488762,"highway":"unclassified"}},{"geometry":{"type":"LineString","coordinates":[[120.678495,24.136445],[120.673871,24.140392]]},"type":"Feature","properties":{"kind":"minor_road","name:en":"Minsheng Road","name":"\u6c11\u751f\u8def","sort_key":17,"is_bridge":"no","source":"openstreetmap","is_link":"no","oneway":"yes","is_tunnel":"no","id":103643438,"highway":"residential"}},{"geometry":{"type":"LineString","coordinates":[[120.675061,24.138065],[120.676913,24.136439]]},"type":"Feature","properties":{"kind":"minor_road","name":"\u56db\u7dad\u8857","sort_key":17,"source":"openstreetmap","is_link":"no","is_bridge":"no","is_tunnel":"no","id":144691376,"highway":"residential"}},{"geometry":{"type":"LineString","coordinates":[[120.678838,24.141703],[120.681510,24.139375]]},"type":"Feature","properties":{"kind":"minor_road","name:en":"Zhongshan Road","name":"\u4e2d\u5c71\u8def","sort_key":17,"is_bridge":"no","source":"openstreetmap","is_link":"no","oneway":"yes","is_tunnel":"no","id":335541101,"highway":"residential"}},{"geometry":{"type":"LineString","coordinates":[[120.694670,24.142420],[120.694492,24.142756]]},"type":"Feature","properties":{"kind":"major_road","name:en":"Jiancheng Road","name":"\u5efa\u6210\u8def","sort_key":21,"is_bridge":"no","source":"openstreetmap","is_link":"no","oneway":"yes","is_tunnel":"no","ref":"3","id":359130746,"highway":"primary"}},{"geometry":{"type":"LineString","coordinates":[[120.686080,24.139002],[120.685194,24.137806],[120.684873,24.137688]]},"type":"Feature","properties":{"kind":"major_road","name:en":"Jianguo Road","name":"\u5efa\u570b\u8def","sort_key":19,"is_bridge":"no","source":"openstreetmap","is_link":"no","oneway":"yes","is_tunnel":"no","id":212393898,"highway":"tertiary"}},{"geometry":{"type":"LineString","coordinates":[[120.684988,24.137581],[120.684873,24.137688]]},"type":"Feature","properties":{"kind":"major_road","name:en":"Taiwan Boulevard Sec. 1","name":"\u81fa\u7063\u5927\u9053\u4e00\u6bb5","sort_key":21,"is_bridge":"no","source":"openstreetmap","is_link":"no","oneway":"yes","is_tunnel":"no","ref":"12","id":212401607,"highway":"primary"}},{"geometry":{"type":"LineString","coordinates":[[120.683923,24.138772],[120.682311,24.140150]]},"type":"Feature","properties":{"kind":"major_road","name:en":"Taiwan Boulevard Sec. 1","name":"\u81fa\u7063\u5927\u9053\u4e00\u6bb5","sort_key":21,"is_bridge":"no","source":"openstreetmap","is_link":"no","oneway":"yes","is_tunnel":"no","ref":"12","id":271086444,"highway":"primary"}},{"geometry":{"type":"LineString","coordinates":[[120.684384,24.137254],[120.684233,24.136815],[120.683725,24.136557]]},"type":"Feature","properties":{"kind":"major_road","name:en":"Jianguo Road","name":"\u5efa\u570b\u8def","sort_key":19,"is_bridge":"no","source":"openstreetmap","is_link":"no","oneway":"yes","is_tunnel":"no","id":289048427,"highway":"tertiary"}},{"geometry":{"type":"LineString","coordinates":[[120.685795,24.143169],[120.685857,24.142071]]},"type":"Feature","properties":{"kind":"major_road","name:en":"Shuangshi Road Sec. 1","name":"\u96d9\u5341\u8def\u4e00\u6bb5","sort_key":19,"is_bridge":"no","source":"openstreetmap","is_link":"no","oneway":"yes","is_tunnel":"no","id":292749331,"highway":"tertiary"}},{"geometry":{"type":"LineString","coordinates":[[120.686040,24.139718],[120.686054,24.140133]]},"type":"Feature","properties":{"kind":"major_road","name:en":"(Jianguo Road)","name":"\u5efa\u570b\u8def","sort_key":19,"is_bridge":"no","source":"openstreetmap","is_link":"no","oneway":"yes","is_tunnel":"no","id":312448088,"highway":"tertiary"}},{"geometry":{"type":"LineString","coordinates":[[120.682361,24.135914],[120.680027,24.137944]]},"type":"Feature","properties":{"kind":"major_road","name:en":"Minquan Road","name":"\u6c11\u6b0a\u8def","sort_key":19,"is_bridge":"no","source":"openstreetmap","is_link":"no","oneway":"yes","is_tunnel":"no","id":328091231,"highway":"tertiary"}},{"geometry":{"type":"LineString","coordinates":[[120.685955,24.139756],[120.686040,24.139718]]},"type":"Feature","properties":{"kind":"major_road","name:en":"Jianguo Road","name":"\u5efa\u570b\u8def","sort_key":19,"is_bridge":"no","source":"openstreetmap","is_link":"no","oneway":"yes","is_tunnel":"no","id":340040478,"highway":"tertiary"}},{"geometry":{"type":"LineString","coordinates":[[120.685857,24.142071],[120.685875,24.140137]]},"type":"Feature","properties":{"kind":"major_road","name:en":"Shuangshi Road Sec. 1","name":"\u96d9\u5341\u8def\u4e00\u6bb5","sort_key":19,"is_bridge":"no","source":"openstreetmap","is_link":"no","oneway":"yes","is_tunnel":"no","id":340121505,"highway":"tertiary"}},{"geometry":{"type":"LineString","coordinates":[[120.679626,24.142470],[120.678675,24.143282]]},"type":"Feature","properties":{"kind":"major_road","name:en":"Taiwan Boulevard Sec. 1","name":"\u81fa\u7063\u5927\u9053\u4e00\u6bb5","sort_key":21,"is_bridge":"no","source":"openstreetmap","is_link":"no","oneway":"yes","is_tunnel":"no","ref":"12","id":355232303,"highway":"primary"}},{"geometry":{"type":"LineString","coordinates":[[120.682386,24.135829],[120.684193,24.136662],[120.684511,24.137161]]},"type":"Feature","properties":{"kind":"major_road","name:en":"Jianguo Road","name":"\u5efa\u570b\u8def","sort_key":19,"is_bridge":"no","source":"openstreetmap","is_link":"no","oneway":"yes","is_tunnel":"no","id":356724535,"highway":"tertiary"}},{"geometry":{"type":"LineString","coordinates":[[120.682264,24.135849],[120.682306,24.135749]]},"type":"Feature","properties":{"kind":"major_road","name:en":"Minquan Road","name":"\u6c11\u6b0a\u8def","sort_key":19,"is_bridge":"no","source":"openstreetmap","is_link":"no","oneway":"yes","is_tunnel":"no","id":356724537,"highway":"tertiary"}},{"geometry":{"type":"LineString","coordinates":[[120.682083,24.131108],[120.683613,24.127886]]},"type":"Feature","properties":{"kind":"minor_road","name:en":"Zhengqi Street","name":"\u6b63\u6c23\u8857","sort_key":17,"is_bridge":"no","source":"openstreetmap","is_link":"no","oneway":"no","is_tunnel":"no","id":211840578,"highway":"residential"}},{"geometry":{"type":"LineString","coordinates":[[120.675523,24.132929],[120.674880,24.132736],[120.674665,24.132822]]},"type":"Feature","properties":{"kind":"minor_road","is_bridge":"no","sort_key":17,"source":"openstreetmap","is_link":"no","oneway":"yes","is_tunnel":"no","id":219480361,"highway":"residential"}},{"geometry":{"type":"LineString","coordinates":[[120.685023,24.129555],[120.684259,24.126702]]},"type":"Feature","properties":{"kind":"major_road","name:en":"Taichung Road","name":"\u53f0\u4e2d\u8def","sort_key":19,"is_bridge":"no","source":"openstreetmap","is_link":"no","oneway":"yes","is_tunnel":"no","id":211686548,"highway":"tertiary"}},{"geometry":{"type":"LineString","coordinates":[[120.684703,24.137385],[120.684988,24.137581]]},"type":"Feature","properties":{"kind":"major_road","name:en":"Jianguo Road","name":"\u5efa\u570b\u8def","sort_key":19,"is_bridge":"no","source":"openstreetmap","is_link":"no","oneway":"yes","is_tunnel":"no","id":355216112,"highway":"tertiary"}},{"geometry":{"type":"LineString","coordinates":[[120.685287,24.140128],[120.680561,24.144287]]},"type":"Feature","properties":{"kind":"minor_road","name:en":"Guangfu Road","name":"\u5149\u5fa9\u8def","sort_key":17,"is_bridge":"no","source":"openstreetmap","is_link":"no","oneway":"yes","is_tunnel":"no","id":262848544,"highway":"residential"}},{"geometry":{"type":"LineString","coordinates":[[120.684350,24.134069],[120.685399,24.134505]]},"type":"Feature","properties":{"kind":"minor_road","name":"\u4e92\u52a9\u885725\u5df7","sort_key":17,"source":"openstreetmap","is_link":"no","is_bridge":"no","is_tunnel":"no","id":344309109,"highway":"residential"}},{"geometry":{"type":"LineString","coordinates":[[120.685189,24.129620],[120.685254,24.130022],[120.682386,24.135829]]},"type":"Feature","properties":{"kind":"major_road","name:en":"Taichung Road","name":"\u53f0\u4e2d\u8def","sort_key":19,"is_bridge":"no","source":"openstreetmap","is_link":"no","oneway":"yes","is_tunnel":"no","id":219485329,"highway":"tertiary"}},{"geometry":{"type":"LineString","coordinates":[[120.675201,24.132205],[120.673828,24.131634]]},"type":"Feature","properties":{"kind":"minor_road","name:en":"Jianguo S. Road Sec. 3","name":"\u5efa\u570b\u5357\u8def\u4e09\u6bb5","sort_key":17,"is_bridge":"no","source":"openstreetmap","is_link":"no","oneway":"no","is_tunnel":"no","id":107431642,"highway":"residential"}},{"geometry":{"type":"LineString","coordinates":[[120.675165,24.132190],[120.676824,24.128862]]},"type":"Feature","properties":{"kind":"minor_road","name:en":"Youheng Street","name":"\u6709\u6046\u8857","sort_key":17,"is_bridge":"no","source":"openstreetmap","is_link":"no","oneway":"no","is_tunnel":"no","id":202795196,"highway":"residential"}},{"geometry":{"type":"LineString","coordinates":[[120.676124,24.133294],[120.676231,24.133079],[120.677240,24.133594]]},"type":"Feature","properties":{"kind":"minor_road","is_bridge":"no","sort_key":17,"source":"openstreetmap","is_link":"no","oneway":"yes","is_tunnel":"no","id":219480357,"highway":"residential"}},{"geometry":{"type":"LineString","coordinates":[[120.675781,24.132886],[120.675652,24.133100],[120.674665,24.132822]]},"type":"Feature","properties":{"kind":"minor_road","is_bridge":"no","sort_key":17,"source":"openstreetmap","is_link":"no","oneway":"yes","is_tunnel":"no","id":219480359,"highway":"residential"}},{"geometry":{"type":"LineString","coordinates":[[120.678053,24.129207],[120.677997,24.129324]]},"type":"Feature","properties":{"kind":"major_road","is_bridge":"yes","name":"\u570b\u5149\u7da0\u6a4b","sort_key":19,"source":"openstreetmap","is_link":"no","oneway":"yes","is_tunnel":"no","id":219480362,"highway":"tertiary"}},{"geometry":{"type":"LineString","coordinates":[[120.677867,24.129269],[120.677924,24.129149]]},"type":"Feature","properties":{"kind":"major_road","is_bridge":"yes","name":"\u570b\u5149\u7da0\u6a4b","sort_key":19,"source":"openstreetmap","is_link":"no","oneway":"yes","is_tunnel":"no","id":219480363,"highway":"tertiary"}},{"geometry":{"type":"LineString","coordinates":[[120.673828,24.129715],[120.675230,24.126702]]},"type":"Feature","properties":{"kind":"minor_road","name:en":"Xuefu Road","name":"\u5b78\u5e9c\u8def","sort_key":17,"is_bridge":"no","source":"openstreetmap","is_link":"no","oneway":"no","is_tunnel":"no","id":77626807,"highway":"residential"}},{"geometry":{"type":"LineString","coordinates":[[120.683725,24.136557],[120.683365,24.136398]]},"type":"Feature","properties":{"kind":"major_road","name:en":"Jianguo Road","name":"\u5efa\u570b\u8def","sort_key":19,"is_bridge":"no","source":"openstreetmap","is_link":"no","oneway":"yes","is_tunnel":"no","id":328091229,"highway":"tertiary"}},{"geometry":{"type":"LineString","coordinates":[[120.680420,24.134631],[120.680240,24.134556]]},"type":"Feature","properties":{"kind":"rail","name":"\u53f0\u4e2d\u7dda(Taichung Line)","sort_key":23,"source":"openstreetmap","is_link":"no","is_bridge":"yes","is_tunnel":"no","railway":"rail","id":322512928}},{"geometry":{"type":"LineString","coordinates":[[120.680018,24.130132],[120.680076,24.130019]]},"type":"Feature","properties":{"kind":"minor_road","name:en":"Zhengyi Street","name":"\u6b63\u7fa9\u8857","sort_key":17,"source":"openstreetmap","is_link":"no","is_bridge":"yes","is_tunnel":"no","id":141031903,"highway":"residential"}},{"geometry":{"type":"LineString","coordinates":[[120.676725,24.142191],[120.673828,24.144672]]},"type":"Feature","properties":{"kind":"minor_road","name:en":"Minzu Road","name":"\u6c11\u65cf\u8def","sort_key":17,"is_bridge":"no","source":"openstreetmap","is_link":"no","oneway":"yes","is_tunnel":"no","id":292836026,"highway":"residential"}},{"geometry":{"type":"LineString","coordinates":[[120.684441,24.138847],[120.684158,24.138579]]},"type":"Feature","properties":{"kind":"minor_road","name:en":"Luchuan E. Street","name":"\u7da0\u5ddd\u6771\u8857","sort_key":17,"is_bridge":"no","source":"openstreetmap","is_link":"no","oneway":"yes","is_tunnel":"no","id":340040479,"highway":"residential"}},{"geometry":{"type":"LineString","coordinates":[[120.682256,24.140099],[120.684105,24.138530]]},"type":"Feature","properties":{"kind":"major_road","name:en":"Taiwan Boulevard Sec. 1","name":"\u81fa\u7063\u5927\u9053\u4e00\u6bb5","sort_key":21,"is_bridge":"no","source":"openstreetmap","is_link":"no","oneway":"yes","is_tunnel":"no","ref":"12","id":335541106,"highway":"primary"}},{"geometry":{"type":"LineString","coordinates":[[120.684158,24.138579],[120.683923,24.138772]]},"type":"Feature","properties":{"kind":"major_road","name:en":"Taiwan Boulevard Sec. 1","name":"\u81fa\u7063\u5927\u9053\u4e00\u6bb5","sort_key":21,"is_bridge":"no","source":"openstreetmap","is_link":"no","oneway":"yes","is_tunnel":"no","ref":"12","id":340040481,"highway":"primary"}},{"geometry":{"type":"LineString","coordinates":[[120.679626,24.142470],[120.678838,24.141703]]},"type":"Feature","properties":{"kind":"major_road","name:en":"Sanmin Road Sec. 2","name":"\u4e09\u6c11\u8def\u4e8c\u6bb5","sort_key":19,"is_bridge":"no","source":"openstreetmap","is_link":"no","oneway":"no","is_tunnel":"no","id":355232304,"highway":"tertiary"}},{"geometry":{"type":"LineString","coordinates":[[120.676024,24.132790],[120.673828,24.131870]]},"type":"Feature","properties":{"kind":"rail","name":"\u53f0\u4e2d\u7dda(Taichung Line)","sort_key":23,"source":"openstreetmap","is_link":"no","is_bridge":"no","is_tunnel":"no","railway":"rail","id":103495677}},{"geometry":{"type":"LineString","coordinates":[[120.677997,24.129324],[120.676746,24.131776]]},"type":"Feature","properties":{"kind":"major_road","name:en":"Guoguang Road","name":"\u570b\u5149\u8def","sort_key":19,"is_bridge":"no","source":"openstreetmap","is_link":"no","oneway":"yes","is_tunnel":"no","id":219480368,"highway":"tertiary"}},{"geometry":{"type":"LineString","coordinates":[[120.673828,24.143333],[120.677390,24.146754]]},"type":"Feature","properties":{"kind":"minor_road","name:en":"Zhonghua W. Street","name":"\u4e2d\u83ef\u897f\u8857","sort_key":17,"is_bridge":"no","source":"openstreetmap","is_link":"no","oneway":"no","is_tunnel":"no","id":263593101,"highway":"residential"}},{"geometry":{"type":"LineString","coordinates":[[120.673871,24.140392],[120.674219,24.140783]]},"type":"Feature","properties":{"kind":"minor_road","is_bridge":"no","sort_key":17,"source":"openstreetmap","is_link":"no","oneway":"yes","is_tunnel":"no","id":292734632,"highway":"residential"}},{"geometry":{"type":"LineString","coordinates":[[120.673871,24.140392],[120.673828,24.140425]]},"type":"Feature","properties":{"kind":"minor_road","name:en":"Minsheng Road","name":"\u6c11\u751f\u8def","sort_key":17,"is_bridge":"no","source":"openstreetmap","is_link":"no","oneway":"no","is_tunnel":"no","id":292734629,"highway":"residential"}},{"geometry":{"type":"LineString","coordinates":[[120.673828,24.132060],[120.674558,24.132371]]},"type":"Feature","properties":{"kind":"major_road","name:en":"Jianguo North Road Section 3","name":"\u5efa\u570b\u5317\u8def\u4e09\u6bb5","sort_key":19,"is_bridge":"no","source":"openstreetmap","is_link":"no","oneway":"yes","is_tunnel":"no","id":212393895,"highway":"tertiary"}},{"geometry":{"type":"LineString","coordinates":[[120.673871,24.140392],[120.673828,24.140348]]},"type":"Feature","properties":{"kind":"minor_road","name:en":"Lequn Street","name":"\u6a02\u7fa4\u8857","sort_key":17,"is_bridge":"no","source":"openstreetmap","is_link":"no","oneway":"no","is_tunnel":"no","id":117455624,"highway":"residential"}},{"geometry":{"type":"LineString","coordinates":[[120.676824,24.128862],[120.676912,24.128695]]},"type":"Feature","properties":{"kind":"minor_road","is_bridge":"yes","name":"\u6709\u6046\u7da0\u6a4b","sort_key":17,"source":"openstreetmap","is_link":"no","oneway":"no","is_tunnel":"no","id":202795153,"highway":"residential"}},{"geometry":{"type":"LineString","coordinates":[[120.680853,24.145404],[120.681597,24.146132]]},"type":"Feature","properties":{"kind":"minor_road","name:en":"Xingzhong Street","name":"\u8208\u4e2d\u8857","sort_key":17,"is_bridge":"no","source":"openstreetmap","is_link":"no","oneway":"no","is_tunnel":"no","id":271452252,"highway":"residential"}},{"geometry":{"type":"LineString","coordinates":[[120.679365,24.143959],[120.679411,24.145247]]},"type":"Feature","properties":{"kind":"minor_road","name:en":"Jixiang Street","name":"\u5409\u7965\u8857","sort_key":17,"is_bridge":"no","source":"openstreetmap","is_link":"no","oneway":"no","is_tunnel":"no","id":271740718,"highway":"residential"}},{"geometry":{"type":"LineString","coordinates":[[120.676247,24.132923],[120.680217,24.134595]]},"type":"Feature","properties":{"kind":"rail","name":"\u53f0\u4e2d\u7dda(Taichung Line)","sort_key":23,"source":"openstreetmap","is_link":"no","is_bridge":"no","is_tunnel":"no","railway":"rail","id":322512934}},{"geometry":{"type":"LineString","coordinates":[[120.673828,24.130559],[120.676654,24.131742]]},"type":"Feature","properties":{"kind":"major_road","name:en":"Fuxing Road Sec. 3","name":"\u5fa9\u8208\u8def\u4e09\u6bb5","sort_key":19,"is_bridge":"no","source":"openstreetmap","is_link":"no","oneway":"yes","is_tunnel":"no","id":219488753,"highway":"tertiary"}},{"geometry":{"type":"LineString","coordinates":[[120.679305,24.135729],[120.680763,24.137177]]},"type":"Feature","properties":{"kind":"minor_road","name:en":"Jiguang Street","name":"\u7e7c\u5149\u8857","sort_key":17,"is_bridge":"no","source":"openstreetmap","is_link":"no","oneway":"no","is_tunnel":"no","id":103643441,"highway":"residential"}},{"geometry":{"type":"LineString","coordinates":[[120.677880,24.142518],[120.678675,24.143282]]},"type":"Feature","properties":{"kind":"minor_road","name:en":"Xingzhong Street","name":"\u8208\u4e2d\u8857","sort_key":17,"is_bridge":"no","source":"openstreetmap","is_link":"no","oneway":"yes","is_tunnel":"no","id":107431645,"highway":"residential"}},{"geometry":{"type":"LineString","coordinates":[[120.674514,24.132463],[120.673828,24.132161]]},"type":"Feature","properties":{"kind":"major_road","name:en":"Jianguo North Road Section 3","name":"\u5efa\u570b\u5317\u8def\u4e09\u6bb5","sort_key":19,"is_bridge":"no","source":"openstreetmap","is_link":"no","oneway":"yes","is_tunnel":"no","id":219480371,"highway":"tertiary"}},{"geometry":{"type":"LineString","coordinates":[[120.675408,24.133545],[120.676142,24.132665]]},"type":"Feature","properties":{"kind":"minor_road","name:en":"Linsen Road","name":"\u6797\u68ee\u8def","sort_key":17,"is_bridge":"no","source":"openstreetmap","is_link":"no","oneway":"yes","is_tunnel":"no","id":219480375,"highway":"residential"}},{"geometry":{"type":"LineString","coordinates":[[120.679371,24.133974],[120.679419,24.133883]]},"type":"Feature","properties":{"kind":"minor_road","is_bridge":"yes","name":"\u7da0\u5ddd\u5408\u4f5c\u6a4b","sort_key":17,"source":"openstreetmap","is_link":"no","oneway":"no","is_tunnel":"no","id":331477462,"highway":"residential"}},{"geometry":{"type":"LineString","coordinates":[[120.675408,24.133545],[120.674450,24.132607],[120.673828,24.132305]]},"type":"Feature","properties":{"kind":"major_road","name:en":"Ziyou Road Sec. 1","name":"\u81ea\u7531\u8def\u4e00\u6bb5","sort_key":20,"is_bridge":"no","source":"openstreetmap","is_link":"no","oneway":"no","is_tunnel":"no","ref":"136","id":336863682,"highway":"secondary"}},{"geometry":{"type":"LineString","coordinates":[[120.682311,24.140150],[120.682256,24.140099]]},"type":"Feature","properties":{"kind":"major_road","name:en":"Ziyou Road Sec. 2","name":"\u81ea\u7531\u8def\u4e8c\u6bb5","sort_key":19,"is_bridge":"no","source":"openstreetmap","is_link":"no","oneway":"no","is_tunnel":"no","id":340040485,"highway":"tertiary"}},{"geometry":{"type":"LineString","coordinates":[[120.682604,24.126995],[120.681836,24.126993]]},"type":"Feature","properties":{"kind":"minor_road","name":"\u5408\u4f5c\u8857 162\u5df7","sort_key":17,"source":"openstreetmap","is_link":"no","is_bridge":"no","is_tunnel":"no","id":354974950,"highway":"residential"}},{"geometry":{"type":"LineString","coordinates":[[120.682264,24.135849],[120.677187,24.133679]]},"type":"Feature","properties":{"kind":"major_road","name:en":"Jianguo Road","name":"\u5efa\u570b\u8def","sort_key":19,"is_bridge":"no","source":"openstreetmap","is_link":"no","oneway":"yes","is_tunnel":"no","id":356724536,"highway":"tertiary"}},{"geometry":{"type":"LineString","coordinates":[[120.676113,24.126702],[120.676172,24.128624]]},"type":"Feature","properties":{"kind":"minor_road","sort_key":17,"source":"openstreetmap","is_link":"no","is_bridge":"no","is_tunnel":"no","id":202795256,"highway":"residential"}},{"geometry":{"type":"LineString","coordinates":[[120.673934,24.134985],[120.673862,24.134926]]},"type":"Feature","properties":{"kind":"minor_road","name:en":"Fuhou Street","name":"\u5e9c\u5f8c\u8857","sort_key":17,"is_bridge":"no","source":"openstreetmap","is_link":"no","oneway":"no","is_tunnel":"no","id":335529304,"highway":"residential"}},{"geometry":{"type":"LineString","coordinates":[[120.675477,24.133615],[120.675408,24.133545]]},"type":"Feature","properties":{"kind":"major_road","name:en":"Ziyou Road Sec. 1","name":"\u81ea\u7531\u8def\u4e00\u6bb5","sort_key":20,"is_bridge":"no","source":"openstreetmap","is_link":"no","oneway":"no","is_tunnel":"no","ref":"136","id":232288923,"highway":"secondary"}},{"geometry":{"type":"LineString","coordinates":[[120.679419,24.133883],[120.682602,24.127478],[120.682605,24.126702]]},"type":"Feature","properties":{"kind":"minor_road","name:en":"Hezuo Street","name":"\u5408\u4f5c\u8857","sort_key":17,"is_bridge":"no","source":"openstreetmap","is_link":"no","oneway":"no","is_tunnel":"no","id":331477461,"highway":"residential"}},{"geometry":{"type":"LineString","coordinates":[[120.675643,24.141704],[120.673828,24.141152]]},"type":"Feature","properties":{"kind":"minor_road","name:en":"Liuchuan W. Road Sec. 2","name":"\u67f3\u5ddd\u897f\u8def\u4e8c\u6bb5","sort_key":17,"is_bridge":"no","source":"openstreetmap","is_link":"no","oneway":"no","is_tunnel":"no","id":271452259,"highway":"residential"}},{"geometry":{"type":"LineString","coordinates":[[120.673828,24.139117],[120.675061,24.138065]]},"type":"Feature","properties":{"kind":"minor_road","name:en":"Siwei Street","name":"\u56db\u7dad\u8857","sort_key":17,"is_bridge":"no","source":"openstreetmap","is_link":"no","oneway":"no","is_tunnel":"no","id":292734631,"highway":"residential"}},{"geometry":{"type":"LineString","coordinates":[[120.682946,24.145629],[120.683033,24.145718]]},"type":"Feature","properties":{"kind":"major_road","is_bridge":"no","sort_key":18,"source":"openstreetmap","is_link":"yes","oneway":"yes","is_tunnel":"no","id":322820700,"highway":"tertiary_link"}},{"geometry":{"type":"LineString","coordinates":[[120.675880,24.141413],[120.677286,24.140182]]},"type":"Feature","properties":{"kind":"major_road","name:en":"Minquan Road","name":"\u6c11\u6b0a\u8def","sort_key":19,"is_bridge":"no","source":"openstreetmap","is_link":"no","oneway":"yes","is_tunnel":"no","id":292836025,"highway":"tertiary"}},{"geometry":{"type":"LineString","coordinates":[[120.682465,24.145853],[120.681829,24.144613]]},"type":"Feature","properties":{"kind":"major_road","name:en":"Sanmin Road Sec. 3","name":"\u4e09\u6c11\u8def\u4e09\u6bb5","sort_key":19,"is_bridge":"no","source":"openstreetmap","is_link":"no","oneway":"yes","is_tunnel":"no","id":335532638,"highway":"tertiary"}},{"geometry":{"type":"LineString","coordinates":[[120.674887,24.129538],[120.674130,24.129231]]},"type":"Feature","properties":{"kind":"minor_road","is_bridge":"no","name":"\u5b78\u5e9c\u8def168\u5df7","sort_key":17,"source":"openstreetmap","is_link":"no","oneway":"no","is_tunnel":"no","id":282747711,"highway":"residential"}},{"geometry":{"type":"LineString","coordinates":[[120.677510,24.144220],[120.677374,24.143709]]},"type":"Feature","properties":{"kind":"minor_road","is_bridge":"no","sort_key":17,"source":"openstreetmap","is_link":"no","oneway":"yes","is_tunnel":"no","id":297028444,"highway":"unclassified"}},{"geometry":{"type":"LineString","coordinates":[[120.674558,24.132371],[120.675963,24.132967]]},"type":"Feature","properties":{"kind":"minor_road","is_bridge":"no","sort_key":17,"source":"openstreetmap","is_link":"no","oneway":"yes","is_tunnel":"no","id":219480356,"highway":"residential"}},{"geometry":{"type":"LineString","coordinates":[[120.676654,24.131742],[120.677867,24.129269]]},"type":"Feature","properties":{"kind":"major_road","name:en":"Guoguang Road","name":"\u570b\u5149\u8def","sort_key":19,"is_bridge":"no","source":"openstreetmap","is_link":"no","oneway":"yes","is_tunnel":"no","id":219480369,"highway":"tertiary"}},{"geometry":{"type":"LineString","coordinates":[[120.676912,24.128695],[120.677884,24.126702]]},"type":"Feature","properties":{"kind":"minor_road","name:en":"Youheng Street","name":"\u6709\u6046\u8857","sort_key":17,"is_bridge":"no","source":"openstreetmap","is_link":"no","oneway":"no","is_tunnel":"no","id":202795222,"highway":"residential"}},{"geometry":{"type":"LineString","coordinates":[[120.677924,24.129149],[120.678990,24.127021]]},"type":"Feature","properties":{"kind":"major_road","name:en":"Guoguang Road","name":"\u570b\u5149\u8def","sort_key":19,"is_bridge":"no","source":"openstreetmap","is_link":"no","oneway":"yes","is_tunnel":"no","id":219480364,"highway":"tertiary"}},{"geometry":{"type":"LineString","coordinates":[[120.680399,24.134506],[120.678346,24.133528]]},"type":"Feature","properties":{"kind":"minor_road","name":"\u5efa\u570b\u5357\u8def\u4e09\u6bb5","sort_key":17,"source":"openstreetmap","is_link":"no","is_bridge":"no","is_tunnel":"no","id":219491265,"highway":"residential"}},{"geometry":{"type":"LineString","coordinates":[[120.680851,24.146754],[120.681489,24.146190],[120.682465,24.145853]]},"type":"Feature","properties":{"kind":"minor_road","name:en":"Fuyin Street","name":"\u798f\u97f3\u8857","sort_key":17,"is_bridge":"no","source":"openstreetmap","is_link":"no","oneway":"yes","is_tunnel":"no","id":219177557,"highway":"residential"}},{"geometry":{"type":"LineString","coordinates":[[120.675973,24.141331],[120.676510,24.141619],[120.677292,24.142327],[120.678066,24.143821]]},"type":"Feature","properties":{"kind":"minor_road","name:en":"Liuchuan E. Road Sec. 3","name":"\u67f3\u5ddd\u6771\u8def\u4e09\u6bb5","sort_key":17,"is_bridge":"no","source":"openstreetmap","is_link":"no","oneway":"no","is_tunnel":"no","id":105618140,"highway":"residential"}},{"geometry":{"type":"LineString","coordinates":[[120.675932,24.133103],[120.674514,24.132463]]},"type":"Feature","properties":{"name:en":"Jianguo North Road Section3","name":"\u5efa\u570b\u5317\u8def\u4e09\u6bb5","sort_key":19,"kind":"major_road","is_bridge":"no","source":"openstreetmap","is_link":"no","oneway":"yes","is_tunnel":"no","id":212393894,"highway":"tertiary"}},{"geometry":{"type":"LineString","coordinates":[[120.674558,24.132371],[120.675976,24.133044]]},"type":"Feature","properties":{"name:en":"Jianguo North Road Section3","name":"\u5efa\u570b\u5317\u8def\u4e09\u6bb5","sort_key":19,"kind":"major_road","is_bridge":"no","source":"openstreetmap","is_link":"no","oneway":"yes","is_tunnel":"no","id":219480370,"highway":"tertiary"}},{"geometry":{"type":"LineString","coordinates":[[120.673828,24.145913],[120.674690,24.146754]]},"type":"Feature","properties":{"kind":"minor_road","name:en":"Yuanzi Street","name":"\u539f\u5b50\u8857","sort_key":17,"is_bridge":"no","source":"openstreetmap","is_link":"no","oneway":"yes","is_tunnel":"no","id":223059866,"highway":"residential"}},{"geometry":{"type":"LineString","coordinates":[[120.678399,24.146738],[120.678415,24.146754]]},"type":"Feature","properties":{"kind":"minor_road","name:en":"Zhonghua Road Sec. 2","name":"\u4e2d\u83ef\u8def\u4e8c\u6bb5","sort_key":17,"is_bridge":"no","source":"openstreetmap","is_link":"no","oneway":"no","is_tunnel":"no","id":219177551,"highway":"residential"}},{"geometry":{"type":"LineString","coordinates":[[120.684524,24.135040],[120.685100,24.133829]]},"type":"Feature","properties":{"kind":"minor_road","name":"\u5fa9\u8208\u8def\u56db\u6bb562\u5df7","sort_key":17,"source":"openstreetmap","is_link":"no","is_bridge":"no","is_tunnel":"no","id":344309108,"highway":"residential"}},{"geometry":{"type":"LineString","coordinates":[[120.681123,24.127114],[120.681834,24.127095]]},"type":"Feature","properties":{"kind":"minor_road","name":"\u6b63\u7fa9\u8857 215\u5df7","sort_key":17,"source":"openstreetmap","is_link":"no","is_bridge":"no","is_tunnel":"no","id":354974946,"highway":"residential"}},{"geometry":{"type":"LineString","coordinates":[[120.674130,24.129231],[120.673828,24.129106]]},"type":"Feature","properties":{"kind":"minor_road","is_bridge":"no","name":"\u5b78\u5e9c\u8def147\u5df7","sort_key":17,"source":"openstreetmap","is_link":"no","oneway":"no","is_tunnel":"no","id":282747714,"highway":"residential"}},{"geometry":{"type":"LineString","coordinates":[[120.679157,24.126964],[120.679104,24.127068]]},"type":"Feature","properties":{"kind":"major_road","name:en":"Guoguang Road","name":"\u570b\u5149\u8def","sort_key":21,"is_bridge":"no","source":"openstreetmap","is_link":"no","oneway":"yes","is_tunnel":"no","ref":"3","id":308362346,"highway":"primary"}},{"geometry":{"type":"LineString","coordinates":[[120.682591,24.137106],[120.681781,24.136299]]},"type":"Feature","properties":{"kind":"minor_road","name:en":"Luchuan E. Street","name":"\u7da0\u5ddd\u6771\u8857","sort_key":17,"is_bridge":"no","source":"openstreetmap","is_link":"no","oneway":"yes","is_tunnel":"no","id":335537953,"highway":"residential"}},{"geometry":{"type":"LineString","coordinates":[[120.678675,24.143282],[120.680853,24.145404]]},"type":"Feature","properties":{"kind":"minor_road","name:en":"Xingzhong Street","name":"\u8208\u4e2d\u8857","sort_key":17,"is_bridge":"no","source":"openstreetmap","is_link":"no","oneway":"yes","is_tunnel":"no","id":314151559,"highway":"residential"}},{"geometry":{"type":"LineString","coordinates":[[120.682591,24.137106],[120.682561,24.137135]]},"type":"Feature","properties":{"kind":"minor_road","name:en":"Minzu Road","name":"\u6c11\u65cf\u8def","sort_key":17,"is_bridge":"no","source":"openstreetmap","is_link":"no","oneway":"yes","is_tunnel":"no","id":335537954,"highway":"residential"}},{"geometry":{"type":"LineString","coordinates":[[120.677286,24.140182],[120.673828,24.136847]]},"type":"Feature","properties":{"kind":"major_road","name:en":"Sanmin Road Sec. 1","name":"\u4e09\u6c11\u8def\u4e00\u6bb5","sort_key":19,"is_bridge":"no","source":"openstreetmap","is_link":"no","oneway":"no","is_tunnel":"no","id":271956489,"highway":"tertiary"}},{"geometry":{"type":"LineString","coordinates":[[120.682382,24.137279],[120.676899,24.142044]]},"type":"Feature","properties":{"kind":"minor_road","name:en":"Minzu Road","name":"\u6c11\u65cf\u8def","sort_key":17,"is_bridge":"no","source":"openstreetmap","is_link":"no","oneway":"yes","is_tunnel":"no","id":335537955,"highway":"residential"}},{"geometry":{"type":"LineString","coordinates":[[120.684508,24.142288],[120.682311,24.140150]]},"type":"Feature","properties":{"kind":"major_road","name:en":"Ziyou Road Sec. 2","name":"\u81ea\u7531\u8def\u4e8c\u6bb5","sort_key":19,"is_bridge":"no","source":"openstreetmap","is_link":"no","oneway":"no","is_tunnel":"no","id":57935063,"highway":"tertiary"}},{"geometry":{"type":"LineString","coordinates":[[120.683365,24.136398],[120.682361,24.135914]]},"type":"Feature","properties":{"kind":"major_road","name:en":"Jianguo Road","name":"\u5efa\u570b\u8def","sort_key":19,"is_bridge":"no","source":"openstreetmap","is_link":"no","oneway":"yes","is_tunnel":"no","id":271086441,"highway":"tertiary"}},{"geometry":{"type":"LineString","coordinates":[[120.678066,24.143821],[120.674719,24.146754]]},"type":"Feature","properties":{"kind":"major_road","name:en":"Taiwan Boulevard Sec. 1","name":"\u81fa\u7063\u5927\u9053\u4e00\u6bb5","sort_key":21,"old_name":"\u53f0\u4e2d\u6e2f\u8def\u4e00\u6bb5","is_bridge":"no","source":"openstreetmap","is_link":"no","oneway":"yes","is_tunnel":"no","ref":"12","id":314151563,"highway":"primary"}},{"geometry":{"type":"LineString","coordinates":[[120.684105,24.138530],[120.684651,24.137813]]},"type":"Feature","properties":{"kind":"major_road","name:en":"Taiwan Boulevard Sec. 1","name":"\u81fa\u7063\u5927\u9053\u4e00\u6bb5","sort_key":21,"is_bridge":"no","source":"openstreetmap","is_link":"no","oneway":"yes","is_tunnel":"no","ref":"12","id":335541108,"highway":"primary"}},{"geometry":{"type":"LineString","coordinates":[[120.680408,24.131859],[120.675149,24.129669]]},"type":"Feature","properties":{"kind":"minor_road","name:en":"Aiguo Street","name":"\u611b\u570b\u8857","sort_key":17,"is_bridge":"no","source":"openstreetmap","is_link":"no","oneway":"no","is_tunnel":"no","id":103643439,"highway":"residential"}},{"geometry":{"type":"LineString","coordinates":[[120.677304,24.133100],[120.675201,24.132205]]},"type":"Feature","properties":{"name":"\u5efa\u570b\u5357\u8def\u4e09\u6bb5","sort_key":17,"kind":"minor_road","source":"openstreetmap","is_link":"no","is_bridge":"no","is_tunnel":"no","id":107431646,"highway":"residential"}},{"geometry":{"type":"LineString","coordinates":[[120.677304,24.133100],[120.678346,24.133528]]},"type":"Feature","properties":{"kind":"minor_road","name":"\u5efa\u570b\u5357\u8def\u4e09\u6bb5","sort_key":17,"source":"openstreetmap","is_link":"no","is_bridge":"no","is_tunnel":"no","id":219491264,"highway":"residential"}},{"geometry":{"type":"LineString","coordinates":[[120.678529,24.145835],[120.677166,24.144525]]},"type":"Feature","properties":{"kind":"minor_road","name:en":"Xingmin Street","name":"\u8208\u6c11\u8857","sort_key":17,"is_bridge":"no","source":"openstreetmap","is_link":"no","oneway":"no","is_tunnel":"no","id":260270758,"highway":"residential"}},{"geometry":{"type":"LineString","coordinates":[[120.683142,24.137958],[120.683269,24.137856]]},"type":"Feature","properties":{"kind":"minor_road","is_bridge":"yes","name":"\u4e2d\u5c71\u7da0\u6a4b","sort_key":17,"source":"openstreetmap","is_link":"no","oneway":"yes","is_tunnel":"no","id":271452255,"highway":"residential"}},{"geometry":{"type":"LineString","coordinates":[[120.684511,24.137161],[120.684815,24.136958],[120.685109,24.137078],[120.685212,24.137312],[120.684988,24.137581]]},"type":"Feature","properties":{"kind":"major_road","is_bridge":"no","sort_key":18,"source":"openstreetmap","is_link":"yes","oneway":"yes","is_tunnel":"no","id":223056027,"highway":"tertiary_link"}},{"geometry":{"type":"LineString","coordinates":[[120.680240,24.134556],[120.676263,24.132888]]},"type":"Feature","properties":{"kind":"rail","name":"\u53f0\u4e2d\u7dda(Taichung Line)","sort_key":23,"source":"openstreetmap","is_link":"no","is_bridge":"no","is_tunnel":"no","railway":"rail","id":322512929}},{"geometry":{"type":"LineString","coordinates":[[120.680217,24.134595],[120.680400,24.134672]]},"type":"Feature","properties":{"kind":"rail","name":"\u53f0\u4e2d\u7dda(Taichung Line)","sort_key":23,"source":"openstreetmap","is_link":"no","is_bridge":"yes","is_tunnel":"no","railway":"rail","id":322512935}},{"geometry":{"type":"LineString","coordinates":[[120.676142,24.132665],[120.675201,24.132205]]},"type":"Feature","properties":{"kind":"minor_road","is_bridge":"no","sort_key":17,"source":"openstreetmap","is_link":"no","oneway":"yes","is_tunnel":"no","id":219480355,"highway":"residential"}},{"geometry":{"type":"LineString","coordinates":[[120.676142,24.132665],[120.676613,24.131830]]},"type":"Feature","properties":{"kind":"minor_road","name:en":"Guoguang Road","name":"\u570b\u5149\u8def","sort_key":17,"is_bridge":"no","source":"openstreetmap","is_link":"no","oneway":"yes","is_tunnel":"no","id":219480366,"highway":"residential"}},{"geometry":{"type":"LineString","coordinates":[[120.679325,24.134073],[120.679371,24.133974]]},"type":"Feature","properties":{"kind":"minor_road","name:en":"Hezuo Street","name":"\u5408\u4f5c\u8857","sort_key":17,"is_bridge":"no","source":"openstreetmap","is_link":"no","oneway":"no","is_tunnel":"no","id":119289455,"highway":"residential"}},{"geometry":{"type":"LineString","coordinates":[[120.675408,24.133545],[120.676067,24.132935],[120.676613,24.131830]]},"type":"Feature","properties":{"name:en":"Linsen Road","name":"\u6797\u68ee\u8def","sort_key":20,"kind":"major_road","is_bridge":"no","source":"openstreetmap","is_link":"no","oneway":"yes","is_tunnel":"no","ref":"136","id":219480376,"highway":"secondary"}},{"geometry":{"type":"LineString","coordinates":[[120.679232,24.132816],[120.679380,24.132875]]},"type":"Feature","properties":{"kind":"major_road","name:en":"Fuxing Road Sec. 3","name":"\u5fa9\u8208\u8def\u4e09\u6bb5","sort_key":20,"is_bridge":"yes","source":"openstreetmap","is_link":"no","oneway":"yes","is_tunnel":"no","ref":"136","id":331477457,"highway":"secondary"}},{"geometry":{"type":"LineString","coordinates":[[120.679333,24.132972],[120.679178,24.132913]]},"type":"Feature","properties":{"kind":"major_road","name:en":"Fuxing Road Sec. 3","name":"\u5fa9\u8208\u8def\u4e09\u6bb5","sort_key":20,"is_bridge":"yes","source":"openstreetmap","is_link":"no","oneway":"yes","is_tunnel":"no","ref":"136","id":331477458,"highway":"secondary"}},{"geometry":{"type":"LineString","coordinates":[[120.679178,24.132913],[120.676613,24.131830]]},"type":"Feature","properties":{"kind":"major_road","name:en":"Fuxing Road Sec. 3","name":"\u5fa9\u8208\u8def\u4e09\u6bb5","sort_key":20,"is_bridge":"no","source":"openstreetmap","is_link":"no","oneway":"yes","is_tunnel":"no","ref":"136","id":331477459,"highway":"secondary"}},{"geometry":{"type":"LineString","coordinates":[[120.678163,24.133892],[120.678306,24.133612]]},"type":"Feature","properties":{"name:en":"Zhengyi Street","name":"\u6b63\u7fa9\u8857","sort_key":17,"kind":"minor_road","is_bridge":"no","source":"openstreetmap","is_link":"no","oneway":"no","is_tunnel":"no","id":56026996,"highway":"residential"}},{"geometry":{"type":"LineString","coordinates":[[120.678163,24.133892],[120.678110,24.134003]]},"type":"Feature","properties":{"kind":"minor_road","name:en":"Zhengyi Street","name":"\u6b63\u7fa9\u8857","sort_key":17,"is_bridge":"no","source":"openstreetmap","is_link":"no","oneway":"no","is_tunnel":"no","id":331613653,"highway":"residential"}},{"geometry":{"type":"LineString","coordinates":[[120.683365,24.136398],[120.682591,24.137106]]},"type":"Feature","properties":{"kind":"minor_road","name:en":"Minzu Road","name":"\u6c11\u65cf\u8def","sort_key":17,"is_bridge":"no","source":"openstreetmap","is_link":"no","oneway":"yes","is_tunnel":"no","id":271086440,"highway":"residential"}},{"geometry":{"type":"LineString","coordinates":[[120.682155,24.145062],[120.682289,24.144989]]},"type":"Feature","properties":{"kind":"major_road","sort_key":18,"source":"openstreetmap","is_link":"yes","is_bridge":"no","is_tunnel":"no","id":335537957,"highway":"tertiary_link"}},{"geometry":{"type":"LineString","coordinates":[[120.680399,24.134506],[120.680224,24.134880]]},"type":"Feature","properties":{"sort_key":17,"name:en":"Minsheng Road","name":"\u6c11\u751f\u8def","kind":"minor_road","source":"openstreetmap","is_link":"no","is_bridge":"no","is_tunnel":"yes","id":119289463,"highway":"residential"}},{"geometry":{"type":"LineString","coordinates":[[120.683923,24.138772],[120.684584,24.139420]]},"type":"Feature","properties":{"kind":"minor_road","is_bridge":"no","name":"\u7da0\u5ddd\u897f\u8857","sort_key":17,"source":"openstreetmap","is_link":"no","oneway":"yes","is_tunnel":"no","id":271086445,"highway":"residential"}},{"geometry":{"type":"LineString","coordinates":[[120.675643,24.141704],[120.676337,24.142040],[120.676748,24.142403],[120.677374,24.143709],[120.677739,24.144119]]},"type":"Feature","properties":{"kind":"minor_road","name:en":"Liuchuan W. Road Sec. 3","name":"\u67f3\u5ddd\u897f\u8def\u4e09\u6bb5","sort_key":17,"is_bridge":"no","source":"openstreetmap","is_link":"no","oneway":"no","is_tunnel":"no","id":219177559,"highway":"residential"}},{"geometry":{"type":"LineString","coordinates":[[120.683965,24.134907],[120.684582,24.133613]]},"type":"Feature","properties":{"kind":"minor_road","name:en":"Huzhu Street","name":"\u4e92\u52a9\u8857","sort_key":17,"is_bridge":"no","source":"openstreetmap","is_link":"no","oneway":"no","is_tunnel":"no","id":331477464,"highway":"residential"}},{"geometry":{"type":"LineString","coordinates":[[120.684158,24.138579],[120.684105,24.138530]]},"type":"Feature","properties":{"kind":"minor_road","name:en":"Luchuan E. Street","name":"\u7da0\u5ddd\u6771\u8857","sort_key":17,"is_bridge":"no","source":"openstreetmap","is_link":"no","oneway":"yes","is_tunnel":"no","id":340040483,"highway":"residential"}},{"geometry":{"type":"LineString","coordinates":[[120.683269,24.137856],[120.683334,24.137804]]},"type":"Feature","properties":{"kind":"minor_road","name:en":"Zhongshan Road","name":"\u4e2d\u5c71\u8def","sort_key":17,"is_bridge":"no","source":"openstreetmap","is_link":"no","oneway":"yes","is_tunnel":"no","id":271452256,"highway":"residential"}},{"geometry":{"type":"LineString","coordinates":[[120.682306,24.135749],[120.685084,24.130097],[120.685023,24.129555]]},"type":"Feature","properties":{"kind":"major_road","name:en":"Taichung Road","name":"\u53f0\u4e2d\u8def","sort_key":19,"is_bridge":"no","source":"openstreetmap","is_link":"no","oneway":"yes","is_tunnel":"no","id":219485652,"highway":"tertiary"}},{"geometry":{"type":"LineString","coordinates":[[120.681967,24.144700],[120.682946,24.145629]]},"type":"Feature","properties":{"kind":"major_road","is_bridge":"no","sort_key":18,"source":"openstreetmap","is_link":"yes","oneway":"yes","is_tunnel":"no","id":241887067,"highway":"tertiary_link"}},{"geometry":{"type":"LineString","coordinates":[[120.681967,24.144700],[120.682644,24.146044]]},"type":"Feature","properties":{"kind":"major_road","name:en":"Sanmin Road Sec. 3","name":"\u4e09\u6c11\u8def\u4e09\u6bb5","sort_key":19,"is_bridge":"no","source":"openstreetmap","is_link":"no","oneway":"yes","is_tunnel":"no","id":292749325,"highway":"tertiary"}},{"geometry":{"type":"LineString","coordinates":[[120.682465,24.145853],[120.683033,24.145718]]},"type":"Feature","properties":{"kind":"major_road","name:en":"Jingwu Road","name":"\u7cbe\u6b66\u8def","sort_key":19,"is_bridge":"no","source":"openstreetmap","is_link":"no","oneway":"yes","is_tunnel":"no","id":220293068,"highway":"tertiary"}},{"geometry":{"type":"LineString","coordinates":[[120.681829,24.144613],[120.679626,24.142470]]},"type":"Feature","properties":{"kind":"major_road","name:en":"Sanmin Road Sec. 2","name":"\u4e09\u6c11\u8def\u4e8c\u6bb5","sort_key":19,"is_bridge":"no","source":"openstreetmap","is_link":"no","oneway":"no","is_tunnel":"no","id":241887065,"highway":"tertiary"}},{"geometry":{"type":"LineString","coordinates":[[120.684384,24.137254],[120.684511,24.137161]]},"type":"Feature","properties":{"kind":"minor_road","name:en":"Zhongshan Road","name":"\u4e2d\u5c71\u8def","sort_key":17,"is_bridge":"no","source":"openstreetmap","is_link":"no","oneway":"yes","is_tunnel":"no","id":289048410,"highway":"residential"}},{"geometry":{"type":"LineString","coordinates":[[120.684511,24.137161],[120.684703,24.137385]]},"type":"Feature","properties":{"kind":"major_road","name:en":"Jianguo Road","name":"\u5efa\u570b\u8def","sort_key":19,"is_bridge":"no","source":"openstreetmap","is_link":"no","oneway":"yes","is_tunnel":"no","id":289048425,"highway":"tertiary"}},{"geometry":{"type":"LineString","coordinates":[[120.675669,24.141597],[120.675880,24.141413]]},"type":"Feature","properties":{"kind":"major_road","is_bridge":"yes","name":"\u6c11\u6b0a\u67f3\u6a4b","sort_key":19,"source":"openstreetmap","is_link":"no","oneway":"yes","is_tunnel":"no","id":292836024,"highway":"tertiary"}},{"geometry":{"type":"LineString","coordinates":[[120.683539,24.137995],[120.683334,24.137804]]},"type":"Feature","properties":{"kind":"minor_road","name:en":"Luchuan E. Street","name":"\u7da0\u5ddd\u6771\u8857","sort_key":17,"is_bridge":"no","source":"openstreetmap","is_link":"no","oneway":"yes","is_tunnel":"no","id":335537952,"highway":"residential"}},{"geometry":{"type":"LineString","coordinates":[[120.684105,24.138530],[120.683539,24.137995]]},"type":"Feature","properties":{"kind":"minor_road","name:en":"Luchuan E. Street","name":"\u7da0\u5ddd\u6771\u8857","sort_key":17,"is_bridge":"no","source":"openstreetmap","is_link":"no","oneway":"yes","is_tunnel":"no","id":335541107,"highway":"residential"}},{"geometry":{"type":"LineString","coordinates":[[120.680027,24.137944],[120.677347,24.140242]]},"type":"Feature","properties":{"kind":"major_road","name:en":"Minquan Road","name":"\u6c11\u6b0a\u8def","sort_key":19,"is_bridge":"no","source":"openstreetmap","is_link":"no","oneway":"yes","is_tunnel":"no","id":336854537,"highway":"tertiary"}},{"geometry":{"type":"LineString","coordinates":[[120.682311,24.140150],[120.679626,24.142470]]},"type":"Feature","properties":{"kind":"major_road","name:en":"Taiwan Boulevard Sec. 1","name":"\u81fa\u7063\u5927\u9053\u4e00\u6bb5","sort_key":21,"is_bridge":"no","source":"openstreetmap","is_link":"no","oneway":"yes","is_tunnel":"no","ref":"12","id":340040487,"highway":"primary"}},{"geometry":{"type":"LineString","coordinates":[[120.684651,24.137813],[120.684873,24.137688]]},"type":"Feature","properties":{"kind":"major_road","name:en":"Taiwan Boulevard Sec. 1","name":"\u81fa\u7063\u5927\u9053\u4e00\u6bb5","sort_key":21,"is_bridge":"no","source":"openstreetmap","is_link":"no","oneway":"yes","is_tunnel":"no","ref":"12","id":359185427,"highway":"primary"}}]}